[{"name":"北京","prCode":"101010100","shiList":[{"areaArrayList":[{"areaCode":"-2019012565","name":""}],"name":"海淀区","shiCode":"101010200"},{"areaArrayList":[{"areaCode":"-2019012565","name":""}],"name":"朝阳区","shiCode":"101060110"},{"areaArrayList":[{"areaCode":"-2019012565","name":""}],"name":"丰台区","shiCode":"101010900"},{"areaArrayList":[{"areaCode":"-2019012565","name":""}],"name":"石景山区","shiCode":"101011000"},{"areaArrayList":[{"areaCode":"-2019012565","name":""}],"name":"房山区","shiCode":"101011200"},{"areaArrayList":[{"areaCode":"-2019012565","name":""}],"name":"门头沟区","shiCode":"101011400"},{"areaArrayList":[{"areaCode":"-2019012565","name":""}],"name":"通州区","shiCode":"101010600"},{"areaArrayList":[{"areaCode":"-2019012565","name":""}],"name":"顺义区","shiCode":"101010400"},{"areaArrayList":[{"areaCode":"-2019012565","name":""}],"name":"昌平区","shiCode":"101010700"},{"areaArrayList":[{"areaCode":"-2019012565","name":""}],"name":"怀柔区","shiCode":"101010500"},{"areaArrayList":[{"areaCode":"-2019012565","name":""}],"name":"平谷区","shiCode":"101011500"},{"areaArrayList":[{"areaCode":"-2019012565","name":""}],"name":"大兴区","shiCode":"101011100"},{"areaArrayList":[{"areaCode":"-2019012565","name":""}],"name":"密云区","shiCode":"101011300"},{"areaArrayList":[{"areaCode":"-2019012565","name":""}],"name":"延庆区","shiCode":"101010800"}]},{"name":"安徽","prCode":"","shiList":[{"areaArrayList":[{"areaCode":"101220609","name":"桐城市"},{"areaCode":"101220605","name":"怀宁县"},{"areaCode":"101220604","name":"潜山县"},{"areaCode":"101220603","name":"太湖县"},{"areaCode":"101220606","name":"宿松县"},{"areaCode":"101220607","name":"望江县"},{"areaCode":"101220608","name":"岳西县"}],"name":"安庆","shiCode":"101220601"},{"areaArrayList":[{"areaCode":"101220202","name":"怀远县"},{"areaCode":"101220204","name":"五河县"},{"areaCode":"101220203","name":"固镇县"}],"name":"蚌埠","shiCode":"101220201"},{"areaArrayList":[{"areaCode":"101221702","name":"东至县"},{"areaCode":"101221705","name":"石台县"},{"areaCode":"101221703","name":"青阳县"}],"name":"池州","shiCode":"101221701"},{"areaArrayList":[{"areaCode":"101221107","name":"天长市"},{"areaCode":"101221103","name":"明光市"},{"areaCode":"101221106","name":"来安县"},{"areaCode":"101221105","name":"全椒县"},{"areaCode":"101221104","name":"定远县"},{"areaCode":"101221102","name":"凤阳县"}],"name":"滁州","shiCode":"101221101"},{"areaArrayList":[{"areaCode":"101220805","name":"界首市"},{"areaCode":"101220804","name":"临泉县"},{"areaCode":"101220806","name":"太和县"},{"areaCode":"101220802","name":"阜南县"},{"areaCode":"101220803","name":"颍上县"}],"name":"阜阳","shiCode":"101220801"},{"areaArrayList":[{"areaCode":"101221202","name":"濉溪县"}],"name":"淮北","shiCode":"101221201"},{"areaArrayList":[{"areaCode":"101220403","name":"潘集区"},{"areaCode":"101220402","name":"凤台县"}],"name":"淮南","shiCode":"101220401"},{"areaArrayList":[{"areaCode":"101221003","name":"屯溪区"},{"areaCode":"101221002","name":"黄山区"},{"areaCode":"101221006","name":"歙县"},{"areaCode":"101221007","name":"休宁县"},{"areaCode":"101221005","name":"黟县"},{"areaCode":"101221004","name":"祁门县"}],"name":"黄山市","shiCode":"101221001"},{"areaArrayList":[{"areaCode":"101220408","name":"寿县"},{"areaCode":"101221502","name":"霍邱县"},{"areaCode":"101221507","name":"舒城县"},{"areaCode":"101221505","name":"金寨县"},{"areaCode":"101221506","name":"霍山县"}],"name":"六安","shiCode":"101221501"},{"areaArrayList":[{"areaCode":"101220503","name":"含山县"},{"areaCode":"101220504","name":"和县"},{"areaCode":"101220502","name":"当涂县"}],"name":"马鞍山","shiCode":"101220501"},{"areaArrayList":[{"areaCode":"101220702","name":"砀山县"},{"areaCode":"101220705","name":"萧县"},{"areaCode":"101220703","name":"灵璧县"},{"areaCode":"101220704","name":"泗县"}],"name":"宿州","shiCode":"101220701"},{"areaArrayList":[{"areaCode":"101221305","name":"枞阳县"},{"areaCode":"101221303","name":"义安区"}],"name":"铜陵","shiCode":"101221301"},{"areaArrayList":[{"areaCode":"101220305","name":"无为县"},{"areaCode":"101220303","name":"芜湖县"},{"areaCode":"101220302","name":"繁昌县"},{"areaCode":"101220304","name":"南陵县"}],"name":"芜湖市","shiCode":"101220301"},{"areaArrayList":[{"areaCode":"101221404","name":"宁国市"},{"areaCode":"101221407","name":"郎溪县"},{"areaCode":"101221406","name":"广德县"},{"areaCode":"101221402","name":"泾县"},{"areaCode":"101221405","name":"绩溪县"},{"areaCode":"101221403","name":"旌德县"}],"name":"宣城","shiCode":"101221401"},{"areaArrayList":[{"areaCode":"101220902","name":"涡阳县"},{"areaCode":"101220904","name":"蒙城县"},{"areaCode":"101220903","name":"利辛县"}],"name":"亳州","shiCode":"101220901"},{"areaArrayList":[{"areaCode":"101220105","name":"巢湖市"},{"areaCode":"101220106","name":"庐江县"},{"areaCode":"101220102","name":"长丰县"},{"areaCode":"101220103","name":"肥东县"},{"areaCode":"101220104","name":"肥西县"}],"name":"合肥","shiCode":"101220101"}]},{"name":"福建","prCode":"","shiList":[{"areaArrayList":[{"areaCode":"101230111","name":"福清市"},{"areaCode":"101230110","name":"长乐市"},{"areaCode":"101230103","name":"闽侯县"},{"areaCode":"101230105","name":"连江县"},{"areaCode":"101230104","name":"罗源县"},{"areaCode":"101230102","name":"闽清县"},{"areaCode":"101230107","name":"永泰县"},{"areaCode":"101230108","name":"平潭县"}],"name":"福州","shiCode":"101230101"},{"areaArrayList":[{"areaCode":"101230707","name":"漳平市"},{"areaCode":"101230702","name":"长汀县"},{"areaCode":"101230706","name":"永定区"},{"areaCode":"101230705","name":"上杭县"},{"areaCode":"101230704","name":"武平县"},{"areaCode":"101230703","name":"连城县"}],"name":"龙岩","shiCode":"101230701"},{"areaArrayList":[{"areaCode":"101230904","name":"邵武市"},{"areaCode":"101230905","name":"武夷山市"},{"areaCode":"101230910","name":"建瓯市"},{"areaCode":"101230907","name":"建阳市"},{"areaCode":"101230902","name":"顺昌县"},{"areaCode":"101230906","name":"浦城县"},{"areaCode":"101230903","name":"光泽县"},{"areaCode":"101230908","name":"松溪县"},{"areaCode":"101230909","name":"政和县"}],"name":"南平","shiCode":"101230901"},{"areaArrayList":[{"areaCode":"101230306","name":"福安市"},{"areaCode":"101230308","name":"福鼎市"},{"areaCode":"101230303","name":"霞浦县"},{"areaCode":"101230302","name":"古田县"},{"areaCode":"101230309","name":"屏南县"},{"areaCode":"101230304","name":"寿宁县"},{"areaCode":"101230305","name":"周宁县"},{"areaCode":"101230307","name":"柘荣县"}],"name":"宁德","shiCode":"101230301"},{"areaArrayList":[{"areaCode":"101230407","name":"城厢区"},{"areaCode":"101230404","name":"涵江区"},{"areaCode":"101230406","name":"荔城区"},{"areaCode":"101230405","name":"秀屿区"},{"areaCode":"101230402","name":"仙游县"}],"name":"莆田","shiCode":"101230401"},{"areaArrayList":[{"areaCode":"101230510","name":"石狮市"},{"areaCode":"101230509","name":"晋江市"},{"areaCode":"101230506","name":"南安市"},{"areaCode":"101230508","name":"惠安县"},{"areaCode":"101230502","name":"安溪县"},{"areaCode":"101230504","name":"永春县"},{"areaCode":"101230505","name":"德化县"}],"name":"泉州","shiCode":"101230501"},{"areaArrayList":[{"areaCode":"101230810","name":"永安市"},{"areaCode":"101230807","name":"明溪县"},{"areaCode":"101230803","name":"清流县"},{"areaCode":"101230802","name":"宁化县"},{"areaCode":"101230811","name":"大田县"},{"areaCode":"101230809","name":"尤溪县"},{"areaCode":"101230808","name":"沙县"},{"areaCode":"101230805","name":"将乐县"},{"areaCode":"101230804","name":"泰宁县"},{"areaCode":"101230806","name":"建宁县"}],"name":"三明","shiCode":"101230801"},{"areaArrayList":[{"areaCode":"101230202","name":"同安区"}],"name":"厦门","shiCode":"101230201"},{"areaArrayList":[{"areaCode":"101230605","name":"龙海市"},{"areaCode":"101230609","name":"云霄县"},{"areaCode":"101230606","name":"漳浦县"},{"areaCode":"101230607","name":"诏安县"},{"areaCode":"101230602","name":"长泰县"},{"areaCode":"101230608","name":"东山县"},{"areaCode":"101230603","name":"南靖县"},{"areaCode":"101230604","name":"平和县"},{"areaCode":"101230610","name":"华安县"}],"name":"漳州","shiCode":"101230601"}]},{"name":"甘肃","prCode":"","shiList":[{"areaArrayList":[{"areaCode":"101160102","name":"皋兰县"},{"areaCode":"101160103","name":"永登县"},{"areaCode":"101160104","name":"榆中县"}],"name":"兰州","shiCode":"101160101"},{"areaArrayList":[{"areaCode":"101161304","name":"平川区"},{"areaCode":"101161303","name":"会宁县"},{"areaCode":"101161305","name":"景泰县"},{"areaCode":"101161302","name":"靖远县"}],"name":"白银市","shiCode":"101161301"},{"areaArrayList":[{"areaCode":"101160205","name":"临洮县"},{"areaCode":"101160203","name":"陇西县"},{"areaCode":"101160202","name":"通渭县"},{"areaCode":"101160204","name":"渭源县"},{"areaCode":"101160206","name":"漳县"},{"areaCode":"101160207","name":"岷县"}],"name":"定西","shiCode":"101160201"},{"areaArrayList":[{"areaCode":"101161201","name":"合作市"},{"areaCode":"101161202","name":"临潭县"},{"areaCode":"101161203","name":"卓尼县"},{"areaCode":"101161204","name":"舟曲县"},{"areaCode":"101161205","name":"迭部县"},{"areaCode":"101161206","name":"玛曲县"},{"areaCode":"101161207","name":"碌曲县"},{"areaCode":"101161208","name":"夏河县"}],"name":"甘南藏族自治州","shiCode":"101161201"},{"areaArrayList":[{"areaCode":"-2019012565","name":""}],"name":"嘉峪关","shiCode":"101161401"},{"areaArrayList":[{"areaCode":"101160602","name":"永昌县"}],"name":"金昌","shiCode":"101160601"},{"areaArrayList":[{"areaCode":"101160807","name":"玉门市"},{"areaCode":"101160808","name":"敦煌市"},{"areaCode":"101160803","name":"金塔县"},{"areaCode":"101160805","name":"瓜州县"},{"areaCode":"101160806","name":"肃北县"},{"areaCode":"101160804","name":"阿克塞"}],"name":"酒泉","shiCode":"101160801"},{"areaArrayList":[{"areaCode":"101161102","name":"康乐县"},{"areaCode":"101161103","name":"永靖县"},{"areaCode":"101161104","name":"广河县"},{"areaCode":"101161105","name":"和政县"},{"areaCode":"101161106","name":"东乡族自治县"},{"areaCode":"101161107","name":"积石山"}],"name":"临夏市","shiCode":"101161101"},{"areaArrayList":[{"areaCode":"101161002","name":"成县"},{"areaCode":"101161008","name":"徽县"},{"areaCode":"101161005","name":"康县"},{"areaCode":"101161007","name":"礼县"},{"areaCode":"101161009","name":"两当县"},{"areaCode":"101161003","name":"文县"},{"areaCode":"101161006","name":"西和县"},{"areaCode":"101161004","name":"宕昌县"},{"areaCode":"101161001","name":"武都区"}],"name":"陇南市","shiCode":"101161010"},{"areaArrayList":[{"areaCode":"101160304","name":"崇信县"},{"areaCode":"101160305","name":"华亭县"},{"areaCode":"101160307","name":"静宁县"},{"areaCode":"101160303","name":"灵台县"},{"areaCode":"101160308","name":"崆峒区"},{"areaCode":"101160306","name":"庄浪县"},{"areaCode":"101160302","name":"泾川县"}],"name":"平凉","shiCode":"101160301"},{"areaArrayList":[{"areaCode":"101160405","name":"合水县"},{"areaCode":"101160404","name":"华池县"},{"areaCode":"101160403","name":"环县"},{"areaCode":"101160407","name":"宁县"},{"areaCode":"101160409","name":"庆城县"},{"areaCode":"101160402","name":"西峰区"},{"areaCode":"101160408","name":"镇原县"},{"areaCode":"101160406","name":"正宁县"}],"name":"庆阳","shiCode":"101160401"},{"areaArrayList":[{"areaCode":"101160905","name":"甘谷县"},{"areaCode":"101160904","name":"秦安县"},{"areaCode":"101160903","name":"清水县"},{"areaCode":"101160908","name":"麦积区"},{"areaCode":"101160906","name":"武山县"},{"areaCode":"101160907","name":"张家川"}],"name":"天水","shiCode":"101160901"},{"areaArrayList":[{"areaCode":"101160503","name":"古浪县"},{"areaCode":"101160502","name":"民勤县"},{"areaCode":"101160505","name":"天祝县"}],"name":"武威","shiCode":"101160501"},{"areaArrayList":[{"areaCode":"101160705","name":"高台县"},{"areaCode":"101160704","name":"临泽县"},{"areaCode":"101160703","name":"民乐县"},{"areaCode":"101160706","name":"山丹县"},{"areaCode":"101160702","name":"肃南县"}],"name":"张掖","shiCode":"101160701"}]},{"name":"广东","prCode":"","shiList":[{"areaArrayList":[{"areaCode":"101280103","name":"从化区"},{"areaCode":"101280109","name":"天河区"},{"areaCode":"101280102","name":"番禺区"},{"areaCode":"101280105","name":"花都区"},{"areaCode":"101280104","name":"增城区"}],"name":"广州","shiCode":"101280101"},{"areaArrayList":[{"areaCode":"101280604","name":"南山区"}],"name":"深圳","shiCode":"101280601"},{"areaArrayList":[{"areaCode":"101281503","name":"潮安区"},{"areaCode":"101281502","name":"饶平县"}],"name":"潮州","shiCode":"101281501"},{"areaArrayList":[{"areaCode":"-2019012565","name":""}],"name":"东莞","shiCode":"101281601"},{"areaArrayList":[{"areaCode":"101280803","name":"南海区"},{"areaCode":"101280801","name":"顺德区"},{"areaCode":"101280802","name":"三水区"},{"areaCode":"101280804","name":"高明区"}],"name":"佛山","shiCode":"101280800"},{"areaArrayList":[{"areaCode":"101281206","name":"东源县"},{"areaCode":"101281204","name":"和平县"},{"areaCode":"101281203","name":"连平县"},{"areaCode":"101281205","name":"龙川县"},{"areaCode":"101281202","name":"紫金县"}],"name":"河源","shiCode":"101281201"},{"areaArrayList":[{"areaCode":"101280303","name":"惠阳区"},{"areaCode":"101280302","name":"博罗县"},{"areaCode":"101280304","name":"惠东县"},{"areaCode":"101280305","name":"龙门县"}],"name":"惠州","shiCode":"101280301"},{"areaArrayList":[{"areaCode":"101281109","name":"江海区"},{"areaCode":"101281107","name":"蓬江区"},{"areaCode":"101281104","name":"新会区"},{"areaCode":"101281106","name":"台山市"},{"areaCode":"101281103","name":"开平市"},{"areaCode":"101281108","name":"鹤山市"},{"areaCode":"101281105","name":"恩平市"}],"name":"江门","shiCode":"101281101"},{"areaArrayList":[{"areaCode":"101281903","name":"普宁市"},{"areaCode":"101281905","name":"揭东区"},{"areaCode":"101281902","name":"揭西县"},{"areaCode":"101281904","name":"惠来县"}],"name":"揭阳","shiCode":"101281901"},{"areaArrayList":[{"areaCode":"101282006","name":"茂港"},{"areaCode":"101282002","name":"高州市"},{"areaCode":"101282003","name":"化州市"},{"areaCode":"101282005","name":"信宜市"},{"areaCode":"101282004","name":"电白区"}],"name":"茂名","shiCode":"101282001"},{"areaArrayList":[{"areaCode":"101280409","name":"梅县区"},{"areaCode":"101280402","name":"兴宁市"},{"areaCode":"101280404","name":"大埔县"},{"areaCode":"101280406","name":"丰顺县"},{"areaCode":"101280408","name":"五华县"},{"areaCode":"101280407","name":"平远县"},{"areaCode":"101280403","name":"蕉岭县"}],"name":"梅州","shiCode":"101280401"},{"areaArrayList":[{"areaCode":"101281307","name":"英德市"},{"areaCode":"101281303","name":"连州市"},{"areaCode":"101281306","name":"佛冈县"},{"areaCode":"101281305","name":"阳山县"},{"areaCode":"101281308","name":"清新区"},{"areaCode":"101281304","name":"连山县"},{"areaCode":"101281302","name":"连南县"}],"name":"清远","shiCode":"101281301"},{"areaArrayList":[{"areaCode":"101280504","name":"南澳县"},{"areaCode":"101280502","name":"潮阳区"},{"areaCode":"101280503","name":"澄海区"}],"name":"汕头","shiCode":"101280501"},{"areaArrayList":[{"areaCode":"101282103","name":"陆丰市"},{"areaCode":"101282102","name":"海丰县"},{"areaCode":"101282104","name":"陆河县"}],"name":"汕尾","shiCode":"101282101"},{"areaArrayList":[{"areaCode":"101280209","name":"曲江区"},{"areaCode":"101280210","name":"浈江区"},{"areaCode":"101280211","name":"武江区"},{"areaCode":"101280205","name":"乐昌市"},{"areaCode":"101280207","name":"南雄市"},{"areaCode":"101280203","name":"始兴县"},{"areaCode":"101280206","name":"仁化县"},{"areaCode":"101280204","name":"翁源县"},{"areaCode":"101280208","name":"新丰县"},{"areaCode":"101280202","name":"乳源县"}],"name":"韶关","shiCode":"101280201"},{"areaArrayList":[{"areaCode":"101281802","name":"阳春市"},{"areaCode":"101281804","name":"阳西县"},{"areaCode":"101281803","name":"阳东区"}],"name":"阳江","shiCode":"101281801"},{"areaArrayList":[{"areaCode":"101281402","name":"罗定市"},{"areaCode":"101281403","name":"新兴县"},{"areaCode":"101281404","name":"郁南县"},{"areaCode":"101281406","name":"云安区"}],"name":"云浮","shiCode":"101281401"},{"areaArrayList":[{"areaCode":"101281006","name":"赤坎区"},{"areaCode":"101281009","name":"霞山区"},{"areaCode":"101281008","name":"坡头区"},{"areaCode":"101281010","name":"麻章区"},{"areaCode":"101281005","name":"廉江市"},{"areaCode":"101281003","name":"雷州市"},{"areaCode":"101281002","name":"吴川市"},{"areaCode":"101281007","name":"遂溪县"},{"areaCode":"101281004","name":"徐闻县"}],"name":"湛江","shiCode":"101281001"},{"areaArrayList":[{"areaCode":"101280908","name":"高要区"},{"areaCode":"101280903","name":"四会市"},{"areaCode":"101280902","name":"广宁县"},{"areaCode":"101280906","name":"怀集县"},{"areaCode":"101280907","name":"封开县"},{"areaCode":"101280905","name":"德庆县"}],"name":"肇庆","shiCode":"101280901"},{"areaArrayList":[{"areaCode":"-2019012565","name":""}],"name":"中山市","shiCode":"101281701"},{"areaArrayList":[{"areaCode":"101280702","name":"斗门区"},{"areaCode":"101280703","name":"金湾区"}],"name":"珠海","shiCode":"101280701"}]},{"name":"广西","prCode":"","shiList":[{"areaArrayList":[{"areaCode":"101300103","name":"邕宁区"},{"areaCode":"101300108","name":"武鸣区"},{"areaCode":"101300105","name":"隆安县"},{"areaCode":"101300106","name":"马山县"},{"areaCode":"101300107","name":"上林县"},{"areaCode":"101300109","name":"宾阳县"},{"areaCode":"101300104","name":"横县"}],"name":"南宁","shiCode":"101300101"},{"areaArrayList":[{"areaCode":"101300510","name":"阳朔县"},{"areaCode":"101300505","name":"临桂区"},{"areaCode":"101300507","name":"灵川县"},{"areaCode":"101300508","name":"全州县"},{"areaCode":"101300512","name":"平乐县"},{"areaCode":"101300506","name":"兴安县"},{"areaCode":"101300509","name":"灌阳县"},{"areaCode":"101300513","name":"荔浦县"},{"areaCode":"101300514","name":"资源县"},{"areaCode":"101300504","name":"永福县"},{"areaCode":"101300503","name":"龙胜县"},{"areaCode":"101300511","name":"恭城县"}],"name":"桂林","shiCode":"101300501"},{"areaArrayList":[{"areaCode":"101301011","name":"凌云县"},{"areaCode":"101301007","name":"平果县"},{"areaCode":"101301009","name":"西林县"},{"areaCode":"101301010","name":"乐业县"},{"areaCode":"101301004","name":"德保县"},{"areaCode":"101301012","name":"田林县"},{"areaCode":"101301003","name":"田阳县"},{"areaCode":"101301005","name":"靖西市"},{"areaCode":"101301006","name":"田东县"},{"areaCode":"101301002","name":"那坡县"},{"areaCode":"101301008","name":"隆林县"}],"name":"百色","shiCode":"101301001"},{"areaArrayList":[{"areaCode":"101301302","name":"合浦县"}],"name":"北海","shiCode":"101301301"},{"areaArrayList":[{"areaCode":"101300204","name":"凭祥市"},{"areaCode":"101300207","name":"宁明县"},{"areaCode":"101300206","name":"扶绥县"},{"areaCode":"101300203","name":"龙州县"},{"areaCode":"101300205","name":"大新县"},{"areaCode":"101300202","name":"天等县"}],"name":"崇左","shiCode":"101300201"},{"areaArrayList":[{"areaCode":"101301405","name":"防城区"},{"areaCode":"101301403","name":"东兴市"},{"areaCode":"101301402","name":"上思县"}],"name":"防城港","shiCode":"101301401"},{"areaArrayList":[{"areaCode":"101300802","name":"桂平市"},{"areaCode":"101300803","name":"平南县"}],"name":"贵港","shiCode":"101300801"},{"areaArrayList":[{"areaCode":"101301207","name":"宜州市"},{"areaCode":"101301202","name":"天峨县"},{"areaCode":"101301208","name":"凤山县"},{"areaCode":"101301209","name":"南丹县"},{"areaCode":"101301203","name":"东兰县"},{"areaCode":"101301210","name":"都安县"},{"areaCode":"101301206","name":"罗城县"},{"areaCode":"101301204","name":"巴马县"},{"areaCode":"101301205","name":"环江县"},{"areaCode":"101301211","name":"大化县"}],"name":"河池","shiCode":"101301201"},{"areaArrayList":[{"areaCode":"101300704","name":"钟山县"},{"areaCode":"101300702","name":"昭平县"},{"areaCode":"101300703","name":"富川县"}],"name":"贺州","shiCode":"101300701"},{"areaArrayList":[{"areaCode":"101300406","name":"合山市"},{"areaCode":"101300404","name":"象州县"},{"areaCode":"101300405","name":"武宣县"},{"areaCode":"101300402","name":"忻城县"},{"areaCode":"101300403","name":"金秀县"}],"name":"来宾","shiCode":"101300401"},{"areaArrayList":[{"areaCode":"101300305","name":"柳江区"},{"areaCode":"101300302","name":"柳城县"},{"areaCode":"101300304","name":"鹿寨县"},{"areaCode":"101300306","name":"融安县"},{"areaCode":"101300307","name":"融水县"},{"areaCode":"101300308","name":"三江县"}],"name":"柳州","shiCode":"101300301"},{"areaArrayList":[{"areaCode":"101301103","name":"灵山县"},{"areaCode":"101301102","name":"浦北县"}],"name":"钦州","shiCode":"101301101"},{"areaArrayList":[{"areaCode":"101300607","name":"长洲区"},{"areaCode":"101300606","name":"岑溪市"},{"areaCode":"101300604","name":"苍梧县"},{"areaCode":"101300602","name":"藤县"},{"areaCode":"101300605","name":"蒙山县"}],"name":"梧州","shiCode":"101300601"},{"areaArrayList":[{"areaCode":"101300903","name":"北流市"},{"areaCode":"101300904","name":"容县"},{"areaCode":"101300905","name":"陆川县"},{"areaCode":"101300902","name":"博白县"},{"areaCode":"101300906","name":"兴业县"}],"name":"玉林","shiCode":"101300901"}]},{"name":"贵州","prCode":"","shiList":[{"areaArrayList":[{"areaCode":"101260111","name":"南明区"},{"areaCode":"101260110","name":"云岩区"},{"areaCode":"101260103","name":"花溪区"},{"areaCode":"101260104","name":"乌当区"},{"areaCode":"101280110","name":"白云区"},{"areaCode":"101260109","name":"小河"},{"areaCode":"101260108","name":"清镇市"},{"areaCode":"101260106","name":"开阳县"},{"areaCode":"101260107","name":"修文县"},{"areaCode":"101260105","name":"息烽县"}],"name":"贵阳","shiCode":"101260101"},{"areaArrayList":[{"areaCode":"101260306","name":"关岭县"},{"areaCode":"101260305","name":"紫云县"},{"areaCode":"101260304","name":"平坝区"},{"areaCode":"101260302","name":"普定县"}],"name":"安顺","shiCode":"101260301"},{"areaArrayList":[{"areaCode":"101260705","name":"大方县"},{"areaCode":"101260708","name":"黔西县"},{"areaCode":"101260703","name":"金沙县"},{"areaCode":"101260707","name":"织金县"},{"areaCode":"101260706","name":"纳雍县"},{"areaCode":"101260702","name":"赫章县"},{"areaCode":"101260704","name":"威宁县"}],"name":"毕节","shiCode":"101260701"},{"areaArrayList":[{"areaCode":"101260801","name":"水城县"},{"areaCode":"101260804","name":"盘县"}],"name":"六盘水","shiCode":"101260803"},{"areaArrayList":[{"areaCode":"101260501","name":"凯里市"},{"areaCode":"101260505","name":"黄平县"},{"areaCode":"101260503","name":"施秉县"},{"areaCode":"101260509","name":"三穗县"},{"areaCode":"101260504","name":"镇远县"},{"areaCode":"101260502","name":"岑巩县"},{"areaCode":"101260514","name":"天柱县"},{"areaCode":"101260515","name":"锦屏县"},{"areaCode":"101260511","name":"剑河县"},{"areaCode":"101260510","name":"台江县"},{"areaCode":"101260513","name":"黎平县"},{"areaCode":"101260516","name":"榕江县"},{"areaCode":"101260517","name":"从江县"},{"areaCode":"101260512","name":"雷山县"},{"areaCode":"101260507","name":"麻江县"},{"areaCode":"101260508","name":"丹寨县"}],"name":"黔东南","shiCode":"101260506"},{"areaArrayList":[{"areaCode":"101260401","name":"都匀市"},{"areaCode":"101260405","name":"福泉市"},{"areaCode":"101260412","name":"荔波县"},{"areaCode":"101260402","name":"贵定县"},{"areaCode":"101260403","name":"瓮安县"},{"areaCode":"101260410","name":"独山县"},{"areaCode":"101260409","name":"平塘县"},{"areaCode":"101260408","name":"罗甸县"},{"areaCode":"101260404","name":"长顺县"},{"areaCode":"101260407","name":"龙里县"},{"areaCode":"101260406","name":"惠水县"},{"areaCode":"101260411","name":"三都县"}],"name":"黔南","shiCode":"101260413"},{"areaArrayList":[{"areaCode":"101260901","name":"兴义市"},{"areaCode":"101260903","name":"兴仁县"},{"areaCode":"101260909","name":"普安县"},{"areaCode":"101260902","name":"晴隆县"},{"areaCode":"101260904","name":"贞丰县"},{"areaCode":"101260905","name":"望谟县"},{"areaCode":"101260908","name":"册亨县"},{"areaCode":"101260907","name":"安龙县"}],"name":"黔西南","shiCode":"101260906"},{"areaArrayList":[{"areaCode":"101260602","name":"江口县"},{"areaCode":"101260608","name":"石阡县"},{"areaCode":"101260605","name":"思南县"},{"areaCode":"101260610","name":"德江县"},{"areaCode":"101260603","name":"玉屏县"},{"areaCode":"101260607","name":"印江县"},{"areaCode":"101260609","name":"沿河县"},{"areaCode":"101260611","name":"松桃县"}],"name":"铜仁市","shiCode":"101260601"},{"areaArrayList":[{"areaCode":"101260215","name":"红花岗区"},{"areaCode":"101260212","name":"务川县"},{"areaCode":"101260210","name":"道真县"},{"areaCode":"101260214","name":"汇川区"},{"areaCode":"101260208","name":"赤水市"},{"areaCode":"101260203","name":"仁怀市"},{"areaCode":"101260202","name":"遵义县"},{"areaCode":"101260207","name":"桐梓县"},{"areaCode":"101260204","name":"绥阳县"},{"areaCode":"101260211","name":"正安县"},{"areaCode":"101260206","name":"凤冈县"},{"areaCode":"101260205","name":"湄潭县"},{"areaCode":"101260213","name":"余庆县"},{"areaCode":"101260209","name":"习水县"}],"name":"遵义","shiCode":"101260201"}]},{"name":"海南","prCode":"","shiList":[{"areaArrayList":[{"areaCode":"101310104","name":"琼山区"}],"name":"海口","shiCode":"101310101"},{"areaArrayList":[{"areaCode":"-2019012565","name":""}],"name":"三亚","shiCode":"101310201"},{"areaArrayList":[{"areaCode":"-2019012565","name":""}],"name":"白沙县","shiCode":"101310207"},{"areaArrayList":[{"areaCode":"-2019012565","name":""}],"name":"保亭县","shiCode":"101310214"},{"areaArrayList":[{"areaCode":"-2019012565","name":""}],"name":"昌江县","shiCode":"101310206"},{"areaArrayList":[{"areaCode":"-2019012565","name":""}],"name":"澄迈县","shiCode":"101310204"},{"areaArrayList":[{"areaCode":"-2019012565","name":""}],"name":"定安县","shiCode":"101310209"},{"areaArrayList":[{"areaCode":"-2019012565","name":""}],"name":"东方","shiCode":"101310202"},{"areaArrayList":[{"areaCode":"-2019012565","name":""}],"name":"乐东县","shiCode":"101310221"},{"areaArrayList":[{"areaCode":"-2019012565","name":""}],"name":"临高县","shiCode":"101310203"},{"areaArrayList":[{"areaCode":"-2019012565","name":""}],"name":"陵水县","shiCode":"101310216"},{"areaArrayList":[{"areaCode":"-2019012565","name":""}],"name":"琼海","shiCode":"101310211"},{"areaArrayList":[{"areaCode":"-2019012565","name":""}],"name":"琼中","shiCode":"101310208"},{"areaArrayList":[{"areaCode":"-2019012565","name":""}],"name":"屯昌县","shiCode":"101310210"},{"areaArrayList":[{"areaCode":"-2019012565","name":""}],"name":"万宁","shiCode":"101310215"},{"areaArrayList":[{"areaCode":"-2019012565","name":""}],"name":"文昌","shiCode":"101310212"},{"areaArrayList":[{"areaCode":"-2019012565","name":""}],"name":"五指山","shiCode":"101310222"},{"areaArrayList":[{"areaCode":"-2019012565","name":""}],"name":"儋州","shiCode":"101310205"}]},{"name":"河北","prCode":"","shiList":[{"areaArrayList":[{"areaCode":"101090122","name":"井陉矿区"},{"areaCode":"101090114","name":"辛集市"},{"areaCode":"101090115","name":"藁城市"},{"areaCode":"101090116","name":"晋州市"},{"areaCode":"101090117","name":"新乐市"},{"areaCode":"101090118","name":"鹿泉区"},{"areaCode":"101090102","name":"井陉县"},{"areaCode":"101090103","name":"正定县"},{"areaCode":"101090104","name":"行唐县"},{"areaCode":"101090106","name":"灵寿县"},{"areaCode":"101090107","name":"高邑县"},{"areaCode":"101090108","name":"深泽县"},{"areaCode":"101090109","name":"赞皇县"},{"areaCode":"101090110","name":"无极县"},{"areaCode":"101090111","name":"平山县"},{"areaCode":"101090112","name":"元氏县"},{"areaCode":"101090113","name":"赵县"}],"name":"石家庄","shiCode":"101090101"},{"areaArrayList":[{"areaCode":"101090218","name":"涿州市"},{"areaCode":"101090219","name":"定州市"},{"areaCode":"101090220","name":"安国市"},{"areaCode":"101090221","name":"高碑店市"},{"areaCode":"101090202","name":"满城区"},{"areaCode":"101090224","name":"清苑区"},{"areaCode":"101090222","name":"涞水县"},{"areaCode":"101090203","name":"阜平县"},{"areaCode":"101090204","name":"徐水区"},{"areaCode":"101090223","name":"定兴县"},{"areaCode":"101090205","name":"唐县"},{"areaCode":"101090206","name":"高阳县"},{"areaCode":"101090207","name":"容城县"},{"areaCode":"101090209","name":"涞源县"},{"areaCode":"101090210","name":"望都县"},{"areaCode":"101090211","name":"安新县"},{"areaCode":"101090212","name":"易县"},{"areaCode":"101090214","name":"曲阳县"},{"areaCode":"101090215","name":"蠡县"},{"areaCode":"101090216","name":"顺平县"},{"areaCode":"101090225","name":"博野县"},{"areaCode":"101090217","name":"雄县"}],"name":"保定","shiCode":"101090201"},{"areaArrayList":[{"areaCode":"101090711","name":"泊头市"},{"areaCode":"101090712","name":"任丘市"},{"areaCode":"101090713","name":"黄骅市"},{"areaCode":"101090714","name":"河间市"},{"areaCode":"101090716","name":"沧县"},{"areaCode":"101090702","name":"青县"},{"areaCode":"101090703","name":"东光县"},{"areaCode":"101090704","name":"海兴县"},{"areaCode":"101090705","name":"盐山县"},{"areaCode":"101090706","name":"肃宁县"},{"areaCode":"101090707","name":"南皮县"},{"areaCode":"101090708","name":"吴桥县"},{"areaCode":"101090709","name":"献县"},{"areaCode":"101090710","name":"孟村县"}],"name":"沧州","shiCode":"101090701"},{"areaArrayList":[{"areaCode":"101090403","name":"承德县"},{"areaCode":"101090404","name":"兴隆县"},{"areaCode":"101090405","name":"平泉市"},{"areaCode":"101090406","name":"滦平县"},{"areaCode":"101090407","name":"隆化县"},{"areaCode":"101090408","name":"丰宁县"},{"areaCode":"101090409","name":"宽城县"},{"areaCode":"101090410","name":"围场县"}],"name":"承德市","shiCode":"101090402"},{"areaArrayList":[{"areaCode":"101091002","name":"峰峰矿区"},{"areaCode":"101091016","name":"武安市"},{"areaCode":"101091003","name":"临漳县"},{"areaCode":"101091004","name":"成安县"},{"areaCode":"101091005","name":"大名县"},{"areaCode":"101091006","name":"涉县"},{"areaCode":"101091007","name":"磁县"},{"areaCode":"101091008","name":"肥乡县"},{"areaCode":"101091009","name":"永年县"},{"areaCode":"101091010","name":"邱县"},{"areaCode":"101091011","name":"鸡泽县"},{"areaCode":"101091012","name":"广平县"},{"areaCode":"101091013","name":"馆陶县"},{"areaCode":"101091014","name":"魏县"},{"areaCode":"101091015","name":"曲周县"}],"name":"邯郸市","shiCode":"101091001"},{"areaArrayList":[{"areaCode":"101090810","name":"冀州市"},{"areaCode":"101090811","name":"深州市"},{"areaCode":"101090802","name":"枣强县"},{"areaCode":"101090803","name":"武邑县"},{"areaCode":"101090804","name":"武强县"},{"areaCode":"101090805","name":"饶阳县"},{"areaCode":"101090806","name":"安平县"},{"areaCode":"101090807","name":"故城县"},{"areaCode":"101090808","name":"景县"},{"areaCode":"101090809","name":"阜城县"}],"name":"衡水","shiCode":"101090801"},{"areaArrayList":[{"areaCode":"101090608","name":"霸州市"},{"areaCode":"101090609","name":"三河市"},{"areaCode":"101090602","name":"固安县"},{"areaCode":"101090603","name":"永清县"},{"areaCode":"101090604","name":"香河县"},{"areaCode":"101090605","name":"大城县"},{"areaCode":"101090606","name":"文安县"},{"areaCode":"101090607","name":"大厂县"}],"name":"廊坊","shiCode":"101090601"},{"areaArrayList":[{"areaCode":"101091106","name":"北戴河区"},{"areaCode":"101091103","name":"昌黎县"},{"areaCode":"101091104","name":"抚宁区"},{"areaCode":"101091105","name":"卢龙县"},{"areaCode":"101091102","name":"青龙县"}],"name":"秦皇岛","shiCode":"101091101"},{"areaArrayList":[{"areaCode":"101090502","name":"丰南区"},{"areaCode":"101090503","name":"丰润区"},{"areaCode":"101090510","name":"遵化市"},{"areaCode":"101090511","name":"迁安市"},{"areaCode":"101090504","name":"滦县"},{"areaCode":"101090505","name":"滦南县"},{"areaCode":"101090506","name":"乐亭县"},{"areaCode":"101090507","name":"迁西县"},{"areaCode":"101090508","name":"玉田县"},{"areaCode":"101090509","name":"曹妃甸区"}],"name":"唐山","shiCode":"101090501"},{"areaArrayList":[{"areaCode":"101090916","name":"南宫市"},{"areaCode":"101090917","name":"沙河市"},{"areaCode":"101090902","name":"临城县"},{"areaCode":"101090904","name":"内丘县"},{"areaCode":"101090905","name":"柏乡县"},{"areaCode":"101090906","name":"隆尧县"},{"areaCode":"101090918","name":"任县"},{"areaCode":"101090907","name":"南和县"},{"areaCode":"101090908","name":"宁晋县"},{"areaCode":"101090909","name":"巨鹿县"},{"areaCode":"101090910","name":"新河县"},{"areaCode":"101090911","name":"广宗县"},{"areaCode":"101090912","name":"平乡县"},{"areaCode":"101090913","name":"威县"},{"areaCode":"101090914","name":"清河县"},{"areaCode":"101090915","name":"临西县"}],"name":"邢台市","shiCode":"101090901"},{"areaArrayList":[{"areaCode":"101090302","name":"宣化区"},{"areaCode":"101090303","name":"张北县"},{"areaCode":"101090304","name":"康保县"},{"areaCode":"101090305","name":"沽源县"},{"areaCode":"101090306","name":"尚义县"},{"areaCode":"101090307","name":"蔚县"},{"areaCode":"101090308","name":"阳原县"},{"areaCode":"101090309","name":"怀安县"},{"areaCode":"101090310","name":"万全区"},{"areaCode":"101090311","name":"怀来县"},{"areaCode":"101090312","name":"涿鹿县"},{"areaCode":"101090313","name":"赤城县"},{"areaCode":"101090314","name":"崇礼区"}],"name":"张家口","shiCode":"101090301"}]},{"name":"河南","prCode":"","shiList":[{"areaArrayList":[{"areaCode":"101180108","name":"上街区"},{"areaCode":"101180102","name":"巩义市"},{"areaCode":"101180103","name":"荥阳市"},{"areaCode":"101180105","name":"新密市"},{"areaCode":"101180106","name":"新郑市"},{"areaCode":"101180104","name":"登封市"},{"areaCode":"101180107","name":"中牟县"}],"name":"郑州","shiCode":"101180101"},{"areaArrayList":[{"areaCode":"101180911","name":"吉利区"},{"areaCode":"101180908","name":"偃师市"},{"areaCode":"101180903","name":"孟津县"},{"areaCode":"101180902","name":"新安县"},{"areaCode":"101180909","name":"栾川县"},{"areaCode":"101180907","name":"嵩县"},{"areaCode":"101180910","name":"汝阳县"},{"areaCode":"101180904","name":"宜阳县"},{"areaCode":"101180905","name":"洛宁县"},{"areaCode":"101180906","name":"伊川县"}],"name":"洛阳","shiCode":"101180901"},{"areaArrayList":[{"areaCode":"101180802","name":"杞县"},{"areaCode":"101180804","name":"通许县"},{"areaCode":"101180803","name":"尉氏县"},{"areaCode":"101180805","name":"兰考县"}],"name":"开封市","shiCode":"101180801"},{"areaArrayList":[{"areaCode":"101180205","name":"林州市"},{"areaCode":"101180202","name":"汤阴县"},{"areaCode":"101180203","name":"滑县"},{"areaCode":"101180204","name":"内黄县"}],"name":"安阳市","shiCode":"101180201"},{"areaArrayList":[{"areaCode":"101181202","name":"浚县"},{"areaCode":"101181203","name":"淇县"}],"name":"鹤壁","shiCode":"101181201"},{"areaArrayList":[{"areaCode":"-2019012565","name":""}],"name":"济源市","shiCode":"101181801"},{"areaArrayList":[{"areaCode":"101181104","name":"沁阳市"},{"areaCode":"101181108","name":"孟州市"},{"areaCode":"101181102","name":"修武县"},{"areaCode":"101181106","name":"博爱县"},{"areaCode":"101181103","name":"武陟县"},{"areaCode":"101181107","name":"温县"}],"name":"焦作","shiCode":"101181101"},{"areaArrayList":[{"areaCode":"101180711","name":"邓州市"},{"areaCode":"101180702","name":"南召县"},{"areaCode":"101180703","name":"方城县"},{"areaCode":"101180705","name":"西峡县"},{"areaCode":"101180707","name":"镇平县"},{"areaCode":"101180706","name":"内乡县"},{"areaCode":"101180708","name":"淅川县"},{"areaCode":"101180704","name":"社旗县"},{"areaCode":"101180710","name":"唐河县"},{"areaCode":"101180709","name":"新野县"},{"areaCode":"101180712","name":"桐柏县"}],"name":"南阳","shiCode":"101180701"},{"areaArrayList":[{"areaCode":"101180508","name":"石龙区"},{"areaCode":"101180506","name":"舞钢市"},{"areaCode":"101180504","name":"汝州市"},{"areaCode":"101180503","name":"宝丰县"},{"areaCode":"101180505","name":"叶县"},{"areaCode":"101180507","name":"鲁山县"},{"areaCode":"101180502","name":"郏县"}],"name":"平顶山","shiCode":"101180501"},{"areaArrayList":[{"areaCode":"101181705","name":"义马市"},{"areaCode":"101181702","name":"灵宝市"},{"areaCode":"101181703","name":"渑池县"},{"areaCode":"101181708","name":"陕州区"},{"areaCode":"101181704","name":"卢氏县"}],"name":"三门峡","shiCode":"101181701"},{"areaArrayList":[{"areaCode":"101181010","name":"睢阳区"},{"areaCode":"101181009","name":"永城市"},{"areaCode":"101181004","name":"民权县"},{"areaCode":"101181003","name":"睢县"},{"areaCode":"101181007","name":"宁陵县"},{"areaCode":"101181005","name":"虞城县"},{"areaCode":"101181006","name":"柘城县"},{"areaCode":"101181008","name":"夏邑县"}],"name":"商丘","shiCode":"101181001"},{"areaArrayList":[{"areaCode":"101180305","name":"卫辉市"},{"areaCode":"101180304","name":"辉县市"},{"areaCode":"101180302","name":"获嘉县"},{"areaCode":"101180303","name":"原阳县"},{"areaCode":"101180306","name":"延津县"},{"areaCode":"101180307","name":"封丘县"},{"areaCode":"101180308","name":"长垣县"}],"name":"新乡市","shiCode":"101180301"},{"areaArrayList":[{"areaCode":"101180603","name":"罗山县"},{"areaCode":"101180604","name":"光山县"},{"areaCode":"101180605","name":"新县"},{"areaCode":"101180609","name":"商城县"},{"areaCode":"101180608","name":"固始县"},{"areaCode":"101180607","name":"潢川县"},{"areaCode":"101180606","name":"淮滨县"},{"areaCode":"101180602","name":"息县"}],"name":"信阳","shiCode":"101180601"},{"areaArrayList":[{"areaCode":"101180405","name":"禹州市"},{"areaCode":"101180404","name":"长葛市"},{"areaCode":"101180402","name":"鄢陵县"},{"areaCode":"101180403","name":"襄城县"}],"name":"许昌市","shiCode":"101180401"},{"areaArrayList":[{"areaCode":"101181407","name":"项城市"},{"areaCode":"101181402","name":"扶沟县"},{"areaCode":"101181405","name":"西华县"},{"areaCode":"101181406","name":"商水县"},{"areaCode":"101181410","name":"沈丘县"},{"areaCode":"101181408","name":"郸城县"},{"areaCode":"101181404","name":"淮阳县"},{"areaCode":"101181403","name":"太康县"},{"areaCode":"101181409","name":"鹿邑县"}],"name":"周口","shiCode":"101181401"},{"areaArrayList":[{"areaCode":"101181602","name":"西平县"},{"areaCode":"101181604","name":"上蔡县"},{"areaCode":"101181607","name":"平舆县"},{"areaCode":"101181610","name":"正阳县"},{"areaCode":"101181609","name":"确山县"},{"areaCode":"101181606","name":"泌阳县"},{"areaCode":"101181605","name":"汝南县"},{"areaCode":"101181603","name":"遂平县"},{"areaCode":"101181608","name":"新蔡县"}],"name":"驻马店","shiCode":"101181601"},{"areaArrayList":[{"areaCode":"101181503","name":"舞阳县"},{"areaCode":"101181502","name":"临颍县"}],"name":"漯河","shiCode":"101181501"},{"areaArrayList":[{"areaCode":"101181304","name":"清丰县"},{"areaCode":"101181303","name":"南乐县"},{"areaCode":"101181305","name":"范县"},{"areaCode":"101181302","name":"台前县"}],"name":"濮阳市","shiCode":"101181301"}]},{"name":"黑龙江","prCode":"","shiList":[{"areaArrayList":[{"areaCode":"101050104","name":"阿城区"},{"areaCode":"101050103","name":"呼兰区"},{"areaCode":"101050111","name":"尚志市"},{"areaCode":"101050102","name":"双城市"},{"areaCode":"101050112","name":"五常市"},{"areaCode":"101050109","name":"方正县"},{"areaCode":"101050105","name":"宾县"},{"areaCode":"101050106","name":"依兰县"},{"areaCode":"101050107","name":"巴彦县"},{"areaCode":"101050108","name":"通河县"},{"areaCode":"101050113","name":"木兰县"},{"areaCode":"101050110","name":"延寿县"}],"name":"哈尔滨","shiCode":"101050101"},{"areaArrayList":[{"areaCode":"101050903","name":"肇州县"},{"areaCode":"101050904","name":"肇源县"},{"areaCode":"101050902","name":"林甸县"},{"areaCode":"101050905","name":"杜尔伯特"}],"name":"大庆","shiCode":"101050901"},{"areaArrayList":[{"areaCode":"101050704","name":"呼玛县"},{"areaCode":"101050703","name":"漠河县"},{"areaCode":"101050702","name":"塔河县"},{"areaCode":"101050708","name":"加格达奇"},{"areaCode":"101050706","name":"新林"},{"areaCode":"101050705","name":"呼中"}],"name":"大兴安岭","shiCode":"101050701"},{"areaArrayList":[{"areaCode":"101051206","name":"南山区"},{"areaCode":"101051203","name":"萝北县"},{"areaCode":"101051202","name":"绥滨县"}],"name":"鹤岗","shiCode":"101051201"},{"areaArrayList":[{"areaCode":"101050605","name":"五大连池市"},{"areaCode":"101050606","name":"北安市"},{"areaCode":"101050602","name":"嫩江县"},{"areaCode":"101050604","name":"逊克县"},{"areaCode":"101050603","name":"孙吴县"}],"name":"黑河","shiCode":"101050601"},{"areaArrayList":[{"areaCode":"101051102","name":"虎林市"},{"areaCode":"101051103","name":"密山市"},{"areaCode":"101051104","name":"鸡东县"}],"name":"鸡西","shiCode":"101051101"},{"areaArrayList":[{"areaCode":"101050406","name":"同江市"},{"areaCode":"101050407","name":"富锦市"},{"areaCode":"101050405","name":"桦南县"},{"areaCode":"101050404","name":"桦川县"},{"areaCode":"101050402","name":"汤原县"},{"areaCode":"101050403","name":"抚远市"}],"name":"佳木斯","shiCode":"101050401"},{"areaArrayList":[{"areaCode":"101050305","name":"绥芬河市"},{"areaCode":"101050302","name":"海林市"},{"areaCode":"101050306","name":"宁安市"},{"areaCode":"101050303","name":"穆棱市"},{"areaCode":"101050307","name":"东宁市"},{"areaCode":"101050304","name":"林口县"}],"name":"牡丹江","shiCode":"101050301"},{"areaArrayList":[{"areaCode":"101051003","name":"勃利县"}],"name":"七台河","shiCode":"101051002"},{"areaArrayList":[{"areaCode":"101050202","name":"讷河市"},{"areaCode":"101050203","name":"龙江县"},{"areaCode":"101050206","name":"依安县"},{"areaCode":"101050210","name":"泰来县"},{"areaCode":"101050204","name":"甘南县"},{"areaCode":"101050205","name":"富裕县"},{"areaCode":"101050208","name":"克山县"},{"areaCode":"101050209","name":"克东县"},{"areaCode":"101050207","name":"拜泉县"}],"name":"齐齐哈尔","shiCode":"101050201"},{"areaArrayList":[{"areaCode":"101051302","name":"集贤县"},{"areaCode":"101051305","name":"友谊县"},{"areaCode":"101051303","name":"宝清县"},{"areaCode":"101051304","name":"饶河县"}],"name":"双鸭山","shiCode":"101051301"},{"areaArrayList":[{"areaCode":"101050503","name":"安达市"},{"areaCode":"101050502","name":"肇东市"},{"areaCode":"101050504","name":"海伦市"},{"areaCode":"101050506","name":"望奎县"},{"areaCode":"101050507","name":"兰西县"},{"areaCode":"101050508","name":"青冈县"},{"areaCode":"101050509","name":"庆安县"},{"areaCode":"101050505","name":"明水县"},{"areaCode":"101050510","name":"绥棱县"}],"name":"绥化","shiCode":"101050501"},{"areaArrayList":[{"areaCode":"101050803","name":"五营区"},{"areaCode":"101050802","name":"乌伊岭区"},{"areaCode":"101050804","name":"铁力市"},{"areaCode":"101050805","name":"嘉荫县"}],"name":"伊春市","shiCode":"101050801"}]},{"name":"湖北","prCode":"","shiList":[{"areaArrayList":[{"areaCode":"101200106","name":"东西湖区"},{"areaCode":"101200102","name":"蔡甸区"},{"areaCode":"101200105","name":"江夏区"},{"areaCode":"101200103","name":"黄陂区"},{"areaCode":"101200104","name":"新洲区"}],"name":"武汉","shiCode":"101200101"},{"areaArrayList":[{"areaCode":"-2019012565","name":""}],"name":"仙桃","shiCode":"101201601"},{"areaArrayList":[{"areaCode":"101200302","name":"梁子湖区"}],"name":"鄂州","shiCode":"101200301"},{"areaArrayList":[{"areaCode":"101200503","name":"麻城市"},{"areaCode":"101200509","name":"武穴市"},{"areaCode":"101200510","name":"团风县"},{"areaCode":"101200502","name":"红安县"},{"areaCode":"101200504","name":"罗田县"},{"areaCode":"101200505","name":"英山县"},{"areaCode":"101200506","name":"浠水县"},{"areaCode":"101200507","name":"蕲春县"},{"areaCode":"101200508","name":"黄梅县"}],"name":"黄冈","shiCode":"101200501"},{"areaArrayList":[{"areaCode":"101200606","name":"西塞山区"},{"areaCode":"101200605","name":"下陆区"},{"areaCode":"101200604","name":"铁山区"},{"areaCode":"101200602","name":"大冶市"},{"areaCode":"101200603","name":"阳新县"}],"name":"黄石","shiCode":"101200601"},{"areaArrayList":[{"areaCode":"101201404","name":"掇刀区"},{"areaCode":"101201402","name":"钟祥市"},{"areaCode":"101201403","name":"京山县"},{"areaCode":"101201405","name":"沙洋县"}],"name":"荆门","shiCode":"101201401"},{"areaArrayList":[{"areaCode":"101200804","name":"石首市"},{"areaCode":"101200806","name":"洪湖市"},{"areaCode":"101200807","name":"松滋市"},{"areaCode":"101200803","name":"公安县"},{"areaCode":"101200805","name":"监利县"},{"areaCode":"101200802","name":"江陵县"}],"name":"荆州市","shiCode":"101200801"},{"areaArrayList":[{"areaCode":"-2019012565","name":""}],"name":"潜江市","shiCode":"101201701"},{"areaArrayList":[{"areaCode":"-2019012565","name":""}],"name":"神农架","shiCode":"101201201"},{"areaArrayList":[{"areaCode":"101201109","name":"张湾区"},{"areaCode":"101201108","name":"茅箭区"},{"areaCode":"101201107","name":"丹江口市"},{"areaCode":"101201104","name":"郧阳区"},{"areaCode":"101201103","name":"郧西县"},{"areaCode":"101201105","name":"竹山县"},{"areaCode":"101201102","name":"竹溪县"},{"areaCode":"101201106","name":"房县"}],"name":"十堰","shiCode":"101201101"},{"areaArrayList":[{"areaCode":"101201302","name":"广水市"}],"name":"随州","shiCode":"101201301"},{"areaArrayList":[{"areaCode":"-2019012565","name":""}],"name":"天门市","shiCode":"101201501"},{"areaArrayList":[{"areaCode":"101200702","name":"赤壁市"},{"areaCode":"101200703","name":"嘉鱼县"},{"areaCode":"101200705","name":"通城县"},{"areaCode":"101200704","name":"崇阳县"},{"areaCode":"101200706","name":"通山县"}],"name":"咸宁","shiCode":"101200701"},{"areaArrayList":[{"areaCode":"101200202","name":"襄州区"},{"areaCode":"101200206","name":"老河口市"},{"areaCode":"101200208","name":"枣阳市"},{"areaCode":"101200205","name":"宜城市"},{"areaCode":"101200204","name":"南漳县"},{"areaCode":"101200207","name":"谷城县"},{"areaCode":"101200203","name":"保康县"}],"name":"襄阳","shiCode":"101200201"},{"areaArrayList":[{"areaCode":"101200405","name":"应城市"},{"areaCode":"101200402","name":"安陆市"},{"areaCode":"101200406","name":"汉川市"},{"areaCode":"101200407","name":"孝昌县"},{"areaCode":"101200404","name":"大悟县"},{"areaCode":"101200403","name":"云梦县"}],"name":"孝感","shiCode":"101200401"},{"areaArrayList":[{"areaCode":"101200908","name":"长阳县"},{"areaCode":"101200906","name":"五峰县"},{"areaCode":"101200912","name":"夷陵区"},{"areaCode":"101200909","name":"宜都市"},{"areaCode":"101200907","name":"当阳市"},{"areaCode":"101200910","name":"枝江市"},{"areaCode":"101200902","name":"远安县"},{"areaCode":"101200904","name":"兴山县"},{"areaCode":"101200903","name":"秭归县"}],"name":"宜昌","shiCode":"101200901"},{"areaArrayList":[{"areaCode":"101201002","name":"利川市"},{"areaCode":"101201003","name":"建始县"},{"areaCode":"101201008","name":"巴东县"},{"areaCode":"101201005","name":"宣恩县"},{"areaCode":"101201004","name":"咸丰县"},{"areaCode":"101201007","name":"来凤县"},{"areaCode":"101201006","name":"鹤峰县"}],"name":"恩施市","shiCode":"101201001"}]},{"name":"湖南","prCode":"","shiList":[{"areaArrayList":[{"areaCode":"101250103","name":"浏阳市"},{"areaCode":"101250106","name":"长沙县"},{"areaCode":"101250105","name":"望城区"},{"areaCode":"101250102","name":"宁乡县"}],"name":"长沙市","shiCode":"101250101"},{"areaArrayList":[{"areaCode":"101251104","name":"武陵源区"},{"areaCode":"101251103","name":"慈利县"},{"areaCode":"101251102","name":"桑植县"}],"name":"张家界","shiCode":"101251101"},{"areaArrayList":[{"areaCode":"101250608","name":"津市市"},{"areaCode":"101250602","name":"安乡县"},{"areaCode":"101250604","name":"汉寿县"},{"areaCode":"101250605","name":"澧县"},{"areaCode":"101250606","name":"临澧县"},{"areaCode":"101250603","name":"桃源县"},{"areaCode":"101250607","name":"石门县"}],"name":"常德","shiCode":"101250601"},{"areaArrayList":[{"areaCode":"101250512","name":"苏仙区"},{"areaCode":"101250507","name":"资兴市"},{"areaCode":"101250502","name":"桂阳县"},{"areaCode":"101250504","name":"宜章县"},{"areaCode":"101250510","name":"永兴县"},{"areaCode":"101250503","name":"嘉禾县"},{"areaCode":"101250505","name":"临武县"},{"areaCode":"101250508","name":"汝城县"},{"areaCode":"101250511","name":"桂东县"},{"areaCode":"101250509","name":"安仁县"}],"name":"郴州","shiCode":"101250501"},{"areaArrayList":[{"areaCode":"101250409","name":"南岳区"},{"areaCode":"101250408","name":"耒阳市"},{"areaCode":"101250406","name":"常宁市"},{"areaCode":"101250405","name":"衡阳县"},{"areaCode":"101250407","name":"衡南县"},{"areaCode":"101250402","name":"衡山县"},{"areaCode":"101250403","name":"衡东县"},{"areaCode":"101250404","name":"祁东县"}],"name":"衡阳市","shiCode":"101250401"},{"areaArrayList":[{"areaCode":"101251202","name":"鹤城区"},{"areaCode":"101251205","name":"靖州县"},{"areaCode":"101251208","name":"麻阳县"},{"areaCode":"101251207","name":"通道县"},{"areaCode":"101251209","name":"新晃县"},{"areaCode":"101251210","name":"芷江治县"},{"areaCode":"101251203","name":"沅陵县"},{"areaCode":"101251204","name":"辰溪县"},{"areaCode":"101251211","name":"溆浦县"},{"areaCode":"101251212","name":"中方县"},{"areaCode":"101251206","name":"会同县"},{"areaCode":"101251213","name":"洪江市"}],"name":"怀化","shiCode":"101251201"},{"areaArrayList":[{"areaCode":"101250803","name":"冷水江市"},{"areaCode":"101250806","name":"涟源市"},{"areaCode":"101250802","name":"双峰县"},{"areaCode":"101250805","name":"新化县"}],"name":"娄底","shiCode":"101250801"},{"areaArrayList":[{"areaCode":"101250909","name":"城步县"},{"areaCode":"101250908","name":"武冈市"},{"areaCode":"101250905","name":"邵东县"},{"areaCode":"101250904","name":"新邵县"},{"areaCode":"101250910","name":"邵阳县"},{"areaCode":"101250902","name":"隆回县"},{"areaCode":"101250903","name":"洞口县"},{"areaCode":"101250906","name":"绥宁县"},{"areaCode":"101250907","name":"新宁县"}],"name":"邵阳市","shiCode":"101250901"},{"areaArrayList":[{"areaCode":"101250203","name":"湘乡市"},{"areaCode":"101250202","name":"韶山市"}],"name":"湘潭市","shiCode":"101250201"},{"areaArrayList":[{"areaCode":"101251501","name":"吉首市"},{"areaCode":"101251506","name":"泸溪县"},{"areaCode":"101251505","name":"凤凰县"},{"areaCode":"101251508","name":"花垣县"},{"areaCode":"101251502","name":"保靖县"},{"areaCode":"101251504","name":"古丈县"},{"areaCode":"101251503","name":"永顺县"},{"areaCode":"101251507","name":"龙山县"}],"name":"湘西","shiCode":"101251509"},{"areaArrayList":[{"areaCode":"101250701","name":"赫山区"},{"areaCode":"101250705","name":"沅江市"},{"areaCode":"101250702","name":"南县"},{"areaCode":"101250703","name":"桃江县"},{"areaCode":"101250704","name":"安化县"}],"name":"益阳","shiCode":"101250700"},{"areaArrayList":[{"areaCode":"101251410","name":"江华瑶族自治县"},{"areaCode":"101251402","name":"祁阳县"},{"areaCode":"101251403","name":"东安县"},{"areaCode":"101251404","name":"双牌县"},{"areaCode":"101251405","name":"道县"},{"areaCode":"101251407","name":"江永县"},{"areaCode":"101251406","name":"宁远县"},{"areaCode":"101251408","name":"蓝山县"},{"areaCode":"101251409","name":"新田县"}],"name":"永州","shiCode":"101251401"},{"areaArrayList":[{"areaCode":"101251004","name":"汨罗市"},{"areaCode":"101251006","name":"临湘市"},{"areaCode":"101251002","name":"华容县"},{"areaCode":"101251003","name":"湘阴县"},{"areaCode":"101251005","name":"平江县"}],"name":"岳阳市","shiCode":"101251001"},{"areaArrayList":[{"areaCode":"101250303","name":"醴陵市"},{"areaCode":"101250304","name":"荷塘区"},{"areaCode":"101250302","name":"攸县"},{"areaCode":"101250305","name":"茶陵县"},{"areaCode":"101250306","name":"炎陵县"}],"name":"株洲","shiCode":"101250301"}]},{"name":"吉林","prCode":"","shiList":[{"areaArrayList":[{"areaCode":"101060106","name":"双阳区"},{"areaCode":"101060103","name":"德惠市"},{"areaCode":"101060104","name":"九台市"},{"areaCode":"101060105","name":"榆树市"},{"areaCode":"101060102","name":"农安县"}],"name":"长春","shiCode":"101060101"},{"areaArrayList":[{"areaCode":"101060204","name":"蛟河市"},{"areaCode":"101060206","name":"桦甸市"},{"areaCode":"101060202","name":"舒兰市"},{"areaCode":"101060205","name":"磐石市"},{"areaCode":"101060203","name":"永吉县"}],"name":"吉林市","shiCode":"101060201"},{"areaArrayList":[{"areaCode":"101060602","name":"洮南市"},{"areaCode":"101060603","name":"大安市"},{"areaCode":"101060604","name":"镇赉县"},{"areaCode":"101060605","name":"通榆县"}],"name":"白城","shiCode":"101060601"},{"areaArrayList":[{"areaCode":"101060907","name":"江源区"},{"areaCode":"101060905","name":"长白县"},{"areaCode":"101060903","name":"临江市"},{"areaCode":"101060906","name":"抚松县"},{"areaCode":"101060902","name":"靖宇县"}],"name":"白山","shiCode":"101060901"},{"areaArrayList":[{"areaCode":"101060702","name":"东丰县"},{"areaCode":"101060703","name":"东辽县"}],"name":"辽源","shiCode":"101060701"},{"areaArrayList":[{"areaCode":"101060405","name":"伊通满族自治县"},{"areaCode":"101060404","name":"公主岭市"},{"areaCode":"101060402","name":"双辽市"},{"areaCode":"101060403","name":"梨树县"}],"name":"四平","shiCode":"101060401"},{"areaArrayList":[{"areaCode":"101060803","name":"前郭县"},{"areaCode":"101060804","name":"长岭县"},{"areaCode":"101060802","name":"乾安县"},{"areaCode":"101060805","name":"扶余市"}],"name":"松原","shiCode":"101060801"},{"areaArrayList":[{"areaCode":"101060502","name":"梅河口市"},{"areaCode":"101060505","name":"集安市"},{"areaCode":"101060506","name":"通化县"},{"areaCode":"101060504","name":"辉南县"},{"areaCode":"101060503","name":"柳河县"}],"name":"通化市","shiCode":"101060501"},{"areaArrayList":[{"areaCode":"101060301","name":"延吉市"},{"areaCode":"101060309","name":"图们市"},{"areaCode":"101060302","name":"敦化市"},{"areaCode":"101060308","name":"珲春市"},{"areaCode":"101060307","name":"龙井市"},{"areaCode":"101060305","name":"和龙市"},{"areaCode":"101060303","name":"安图县"},{"areaCode":"101060304","name":"汪清县"}],"name":"延边","shiCode":"101060306"}]},{"name":"江苏","prCode":"","shiList":[{"areaArrayList":[{"areaCode":"101190107","name":"浦口区"},{"areaCode":"101190104","name":"江宁区"},{"areaCode":"101190105","name":"六合区"},{"areaCode":"101190102","name":"溧水区"},{"areaCode":"101190103","name":"高淳区"}],"name":"南京","shiCode":"101190101"},{"areaArrayList":[{"areaCode":"101190405","name":"吴中区"},{"areaCode":"101190404","name":"昆山市"},{"areaCode":"101190402","name":"常熟市"},{"areaCode":"101190403","name":"张家港市"},{"areaCode":"101190407","name":"吴江区"},{"areaCode":"101190408","name":"太仓市"}],"name":"苏州","shiCode":"101190401"},{"areaArrayList":[{"areaCode":"101190204","name":"锡山区"},{"areaCode":"101190202","name":"江阴市"},{"areaCode":"101190203","name":"宜兴市"}],"name":"无锡","shiCode":"101190201"},{"areaArrayList":[{"areaCode":"101191104","name":"武进区"},{"areaCode":"101191102","name":"溧阳市"},{"areaCode":"101191103","name":"金坛区"}],"name":"常州","shiCode":"101191101"},{"areaArrayList":[{"areaCode":"101190908","name":"淮安区"},{"areaCode":"101190906","name":"淮阴区"},{"areaCode":"101190905","name":"涟水县"},{"areaCode":"101190904","name":"洪泽区"},{"areaCode":"101190903","name":"盱眙县"},{"areaCode":"101190902","name":"金湖县"}],"name":"淮安市","shiCode":"101190901"},{"areaArrayList":[{"areaCode":"101191003","name":"赣榆区"},{"areaCode":"101191002","name":"东海县"},{"areaCode":"101191004","name":"灌云县"},{"areaCode":"101191005","name":"灌南县"}],"name":"连云港","shiCode":"101191001"},{"areaArrayList":[{"areaCode":"101190507","name":"启东市"},{"areaCode":"101190503","name":"如皋市"},{"areaCode":"101190509","name":"通州区"},{"areaCode":"101190508","name":"海门市"},{"areaCode":"101190502","name":"海安县"},{"areaCode":"101190504","name":"如东县"}],"name":"南通","shiCode":"101190501"},{"areaArrayList":[{"areaCode":"101191305","name":"宿豫区"},{"areaCode":"101191302","name":"沭阳县"},{"areaCode":"101191303","name":"泗阳县"},{"areaCode":"101191304","name":"泗洪县"}],"name":"宿迁","shiCode":"101191301"},{"areaArrayList":[{"areaCode":"101191202","name":"兴化市"},{"areaCode":"101191205","name":"靖江市"},{"areaCode":"101191203","name":"泰兴市"},{"areaCode":"101191204","name":"姜堰区"}],"name":"泰州","shiCode":"101191201"},{"areaArrayList":[{"areaCode":"101190807","name":"新沂市"},{"areaCode":"101190805","name":"邳州市"},{"areaCode":"101190803","name":"丰县"},{"areaCode":"101190804","name":"沛县"},{"areaCode":"101190802","name":"铜山区"},{"areaCode":"101190806","name":"睢宁县"}],"name":"徐州","shiCode":"101190801"},{"areaArrayList":[{"areaCode":"101190709","name":"盐都区"},{"areaCode":"101190707","name":"东台市"},{"areaCode":"101190708","name":"大丰区"},{"areaCode":"101190702","name":"响水县"},{"areaCode":"101190703","name":"滨海县"},{"areaCode":"101190704","name":"阜宁县"},{"areaCode":"101190705","name":"射阳县"},{"areaCode":"101190706","name":"建湖县"}],"name":"盐城","shiCode":"101190701"},{"areaArrayList":[{"areaCode":"101190606","name":"邗江区"},{"areaCode":"101190603","name":"仪征市"},{"areaCode":"101190604","name":"高邮市"},{"areaCode":"101190605","name":"江都市"},{"areaCode":"101190602","name":"宝应县"}],"name":"扬州","shiCode":"101190601"},{"areaArrayList":[{"areaCode":"101190305","name":"丹徒区"},{"areaCode":"101190302","name":"丹阳市"},{"areaCode":"101190303","name":"扬中市"},{"areaCode":"101190304","name":"句容市"}],"name":"镇江","shiCode":"101190301"}]},{"name":"江西","prCode":"","shiList":[{"areaArrayList":[{"areaCode":"101240103","name":"南昌县"},{"areaCode":"101240102","name":"新建区"},{"areaCode":"101240104","name":"安义县"},{"areaCode":"101240105","name":"进贤县"}],"name":"南昌市","shiCode":"101240101"},{"areaArrayList":[{"areaCode":"101240408","name":"南城县"},{"areaCode":"101240410","name":"黎川县"},{"areaCode":"101240409","name":"南丰县"},{"areaCode":"101240404","name":"崇仁县"},{"areaCode":"101240403","name":"乐安县"},{"areaCode":"101240407","name":"宜黄县"},{"areaCode":"101240405","name":"金溪县"},{"areaCode":"101240406","name":"资溪县"},{"areaCode":"101240411","name":"东乡县"},{"areaCode":"101240402","name":"广昌县"}],"name":"抚州","shiCode":"101240401"},{"areaArrayList":[{"areaCode":"101240710","name":"于都县"},{"areaCode":"101240709","name":"瑞金市"},{"areaCode":"101240704","name":"南康市"},{"areaCode":"101240718","name":"赣县"},{"areaCode":"101240706","name":"信丰县"},{"areaCode":"101240705","name":"大余县"},{"areaCode":"101240703","name":"上犹县"},{"areaCode":"101240702","name":"崇义县"},{"areaCode":"101240712","name":"安远县"},{"areaCode":"101240714","name":"龙南县"},{"areaCode":"101240715","name":"定南县"},{"areaCode":"101240713","name":"全南县"},{"areaCode":"101240707","name":"宁都县"},{"areaCode":"101240717","name":"兴国县"},{"areaCode":"101240711","name":"会昌县"},{"areaCode":"101240716","name":"寻乌县"},{"areaCode":"101240708","name":"石城县"}],"name":"赣州","shiCode":"101240701"},{"areaArrayList":[{"areaCode":"101240612","name":"安福县"},{"areaCode":"101240608","name":"井冈山市"},{"areaCode":"101240602","name":"吉安县"},{"areaCode":"101240603","name":"吉水县"},{"areaCode":"101240605","name":"峡江县"},{"areaCode":"101240604","name":"新干县"},{"areaCode":"101240606","name":"永丰县"},{"areaCode":"101240611","name":"泰和县"},{"areaCode":"101240610","name":"遂川县"},{"areaCode":"101240609","name":"万安县"},{"areaCode":"101240607","name":"永新县"}],"name":"吉安市","shiCode":"101240601"},{"areaArrayList":[{"areaCode":"101240802","name":"乐平市"},{"areaCode":"101240803","name":"浮梁县"}],"name":"景德镇","shiCode":"101240801"},{"areaArrayList":[{"areaCode":"101240203","name":"庐山市"},{"areaCode":"101240202","name":"瑞昌市"},{"areaCode":"101240204","name":"武宁县"},{"areaCode":"101240212","name":"修水县"},{"areaCode":"101240206","name":"永修县"},{"areaCode":"101240205","name":"德安县"},{"areaCode":"101240209","name":"星子县"},{"areaCode":"101240210","name":"都昌县"},{"areaCode":"101240207","name":"湖口县"},{"areaCode":"101240208","name":"彭泽县"}],"name":"九江市","shiCode":"101240201"},{"areaArrayList":[{"areaCode":"101240904","name":"安源区"},{"areaCode":"101240906","name":"湘东区"},{"areaCode":"101240902","name":"莲花县"},{"areaCode":"101240905","name":"芦溪县"},{"areaCode":"101240903","name":"上栗县"}],"name":"萍乡","shiCode":"101240901"},{"areaArrayList":[{"areaCode":"101240307","name":"德兴市"},{"areaCode":"101240308","name":"上饶县"},{"areaCode":"101240313","name":"广丰区"},{"areaCode":"101240312","name":"玉山县"},{"areaCode":"101240311","name":"铅山县"},{"areaCode":"101240310","name":"横峰县"},{"areaCode":"101240309","name":"弋阳县"},{"areaCode":"101240305","name":"余干县"},{"areaCode":"101240302","name":"鄱阳县"},{"areaCode":"101240306","name":"万年县"},{"areaCode":"101240303","name":"婺源县"}],"name":"上饶市","shiCode":"101240301"},{"areaArrayList":[{"areaCode":"101241002","name":"分宜县"}],"name":"新余","shiCode":"101241001"},{"areaArrayList":[{"areaCode":"101240510","name":"丰城市"},{"areaCode":"101240509","name":"樟树市"},{"areaCode":"101240508","name":"高安市"},{"areaCode":"101240507","name":"奉新县"},{"areaCode":"101240504","name":"万载县"},{"areaCode":"101240505","name":"上高县"},{"areaCode":"101240503","name":"宜丰县"},{"areaCode":"101240506","name":"靖安县"},{"areaCode":"101240502","name":"铜鼓县"}],"name":"宜春","shiCode":"101240501"},{"areaArrayList":[{"areaCode":"101241103","name":"贵溪市"},{"areaCode":"101241102","name":"余江县"}],"name":"鹰潭","shiCode":"101241101"}]},{"name":"辽宁","prCode":"","shiList":[{"areaArrayList":[{"areaCode":"101070112","name":"苏家屯区"},{"areaCode":"101070114","name":"于洪区"},{"areaCode":"101070106","name":"新民市"},{"areaCode":"101070103","name":"辽中区"},{"areaCode":"101070104","name":"康平县"},{"areaCode":"101070105","name":"法库县"}],"name":"沈阳","shiCode":"101070101"},{"areaArrayList":[{"areaCode":"101070205","name":"旅顺口区"},{"areaCode":"101070203","name":"金州区"},{"areaCode":"101070202","name":"瓦房店市"},{"areaCode":"101070204","name":"普兰店市"},{"areaCode":"101070207","name":"庄河市"},{"areaCode":"101070206","name":"长海县"}],"name":"大连市","shiCode":"101070201"},{"areaArrayList":[{"areaCode":"101070303","name":"岫岩县"},{"areaCode":"101070304","name":"海城市"},{"areaCode":"101070302","name":"台安县"}],"name":"鞍山市","shiCode":"101070301"},{"areaArrayList":[{"areaCode":"101070502","name":"本溪县"},{"areaCode":"101070504","name":"桓仁县"}],"name":"本溪市","shiCode":"101070501"},{"areaArrayList":[{"areaCode":"101071204","name":"喀喇沁左翼蒙古族自治县"},{"areaCode":"101071205","name":"北票市"},{"areaCode":"101071203","name":"凌源市"},{"areaCode":"101071207","name":"建平县"}],"name":"朝阳市","shiCode":"101071201"},{"areaArrayList":[{"areaCode":"101070603","name":"宽甸县"},{"areaCode":"101070604","name":"东港市"},{"areaCode":"101070602","name":"凤城市"}],"name":"丹东","shiCode":"101070601"},{"areaArrayList":[{"areaCode":"101070403","name":"清原县"},{"areaCode":"101070402","name":"新宾县"}],"name":"抚顺市","shiCode":"101070401"},{"areaArrayList":[{"areaCode":"101070902","name":"彰武县"}],"name":"阜新","shiCode":"101070901"},{"areaArrayList":[{"areaCode":"101071404","name":"兴城市"},{"areaCode":"101071403","name":"绥中县"},{"areaCode":"101071402","name":"建昌县"}],"name":"葫芦岛","shiCode":"101071401"},{"areaArrayList":[{"areaCode":"101070702","name":"凌海市"},{"areaCode":"101070706","name":"北镇市"},{"areaCode":"101070705","name":"黑山县"},{"areaCode":"101070704","name":"义县"}],"name":"锦州","shiCode":"101070701"},{"areaArrayList":[{"areaCode":"101071004","name":"弓长岭区"},{"areaCode":"101071003","name":"灯塔市"},{"areaCode":"101071002","name":"辽阳县"}],"name":"辽阳市","shiCode":"101071001"},{"areaArrayList":[{"areaCode":"101071302","name":"大洼区"},{"areaCode":"101071303","name":"盘山县"}],"name":"盘锦","shiCode":"101071301"},{"areaArrayList":[{"areaCode":"101071105","name":"调兵山市"},{"areaCode":"101071102","name":"开原市"},{"areaCode":"101071104","name":"西丰县"},{"areaCode":"101071103","name":"昌图县"}],"name":"铁岭市","shiCode":"101071101"},{"areaArrayList":[{"areaCode":"101070803","name":"盖州市"},{"areaCode":"101070802","name":"大石桥市"}],"name":"营口","shiCode":"101070801"}]},{"name":"内蒙古","prCode":"","shiList":[{"areaArrayList":[{"areaCode":"101080105","name":"清水河县"},{"areaCode":"101080102","name":"土默特左旗"},{"areaCode":"101080103","name":"托克托县"},{"areaCode":"101080104","name":"和林格尔县"},{"areaCode":"101080107","name":"武川县"}],"name":"呼和浩特","shiCode":"101080101"},{"areaArrayList":[{"areaCode":"101081201","name":"阿拉善左旗"},{"areaCode":"101081202","name":"阿拉善右旗"},{"areaCode":"101081203","name":"额济纳旗"}],"name":"阿拉善盟","shiCode":"101081213"},{"areaArrayList":[{"areaCode":"101080801","name":"临河区"},{"areaCode":"101080802","name":"五原县"},{"areaCode":"101080803","name":"磴口县"},{"areaCode":"101080804","name":"乌拉特前旗"},{"areaCode":"101080806","name":"乌拉特中旗"},{"areaCode":"101080807","name":"乌拉特后旗"},{"areaCode":"101080810","name":"杭锦后旗"}],"name":"巴彦淖尔","shiCode":"101080811"},{"areaArrayList":[{"areaCode":"101080211","name":"石拐区"},{"areaCode":"101080202","name":"白云鄂博"},{"areaCode":"101080204","name":"土默特右旗"},{"areaCode":"101080205","name":"固阳县"},{"areaCode":"101080206","name":"达茂旗"}],"name":"包头","shiCode":"101080201"},{"areaArrayList":[{"areaCode":"101080603","name":"阿鲁科尔沁旗"},{"areaCode":"101080605","name":"巴林左旗"},{"areaCode":"101080606","name":"巴林右旗"},{"areaCode":"101080607","name":"林西县"},{"areaCode":"101080608","name":"克什克腾旗"},{"areaCode":"101080609","name":"翁牛特旗"},{"areaCode":"101080611","name":"喀喇沁旗"},{"areaCode":"101080613","name":"宁城县"},{"areaCode":"101080614","name":"敖汉旗"}],"name":"赤峰","shiCode":"101080601"},{"areaArrayList":[{"areaCode":"101080713","name":"东胜区"},{"areaCode":"101080703","name":"达拉特旗"},{"areaCode":"101080704","name":"准格尔旗"},{"areaCode":"101080705","name":"鄂托克前旗"},{"areaCode":"101080708","name":"鄂托克旗"},{"areaCode":"101080709","name":"杭锦旗"},{"areaCode":"101080710","name":"乌审旗"},{"areaCode":"101080711","name":"伊金霍洛旗"}],"name":"鄂尔多斯","shiCode":"101080701"},{"areaArrayList":[{"areaCode":"101081004","name":"莫力达瓦"},{"areaCode":"101081010","name":"满洲里市"},{"areaCode":"101081011","name":"牙克石市"},{"areaCode":"101081012","name":"扎兰屯市"},{"areaCode":"101081014","name":"额尔古纳市"},{"areaCode":"101081015","name":"根河市"},{"areaCode":"101081003","name":"阿荣旗"},{"areaCode":"101081005","name":"鄂伦春旗"},{"areaCode":"101081006","name":"鄂温克族旗"},{"areaCode":"101081007","name":"陈巴尔虎旗"},{"areaCode":"101081008","name":"新巴尔虎左旗"},{"areaCode":"101081009","name":"新巴尔虎右旗"}],"name":"呼伦贝尔市","shiCode":"101081001"},{"areaArrayList":[{"areaCode":"101080512","name":"霍林郭勒市"},{"areaCode":"101080503","name":"科尔沁左翼中旗"},{"areaCode":"101080504","name":"科尔沁左翼后旗"},{"areaCode":"101080506","name":"开鲁县"},{"areaCode":"101080507","name":"库伦旗"},{"areaCode":"101080508","name":"奈曼旗"},{"areaCode":"101080509","name":"扎鲁特旗"}],"name":"通辽","shiCode":"101080501"},{"areaArrayList":[{"areaCode":"-2019012565","name":""}],"name":"乌海","shiCode":"101080301"},{"areaArrayList":[{"areaCode":"101080403","name":"化德县"},{"areaCode":"101080401","name":"集宁区"},{"areaCode":"101080412","name":"丰镇市"},{"areaCode":"101080402","name":"卓资县"},{"areaCode":"101080404","name":"商都县"},{"areaCode":"101080406","name":"兴和县"},{"areaCode":"101080407","name":"凉城县"},{"areaCode":"101080408","name":"察哈尔右翼前旗"},{"areaCode":"101080409","name":"察哈尔右翼中旗"},{"areaCode":"101080410","name":"察哈尔右翼后旗"},{"areaCode":"101080411","name":"四子王旗"}],"name":"乌兰察布","shiCode":"101080405"},{"areaArrayList":[{"areaCode":"101080903","name":"二连浩特市"},{"areaCode":"101080901","name":"锡林浩特市"},{"areaCode":"101080904","name":"阿巴嘎旗"},{"areaCode":"101080906","name":"苏尼特左旗"},{"areaCode":"101080907","name":"苏尼特右旗"},{"areaCode":"101080909","name":"东乌珠穆沁旗"},{"areaCode":"101080910","name":"西乌珠穆沁旗"},{"areaCode":"101080911","name":"太仆寺旗"},{"areaCode":"101080912","name":"镶黄旗"},{"areaCode":"101080913","name":"正镶白旗"},{"areaCode":"101080915","name":"多伦县"}],"name":"锡林郭勒","shiCode":"101080902"},{"areaArrayList":[{"areaCode":"101081101","name":"乌兰浩特市"},{"areaCode":"101081102","name":"阿尔山市"},{"areaCode":"101081109","name":"科尔沁右翼前旗"},{"areaCode":"101081103","name":"科尔沁右翼中旗"},{"areaCode":"101081105","name":"扎赉特旗"},{"areaCode":"101081107","name":"突泉县"}],"name":"兴安盟","shiCode":"101081108"}]},{"name":"宁夏","prCode":"","shiList":[{"areaArrayList":[{"areaCode":"101170103","name":"灵武市"},{"areaCode":"101170102","name":"永宁县"},{"areaCode":"101170104","name":"贺兰县"}],"name":"银川","shiCode":"101170101"},{"areaArrayList":[{"areaCode":"101170402","name":"西吉县"},{"areaCode":"101170403","name":"隆德县"},{"areaCode":"101170404","name":"泾源县"},{"areaCode":"101170406","name":"彭阳县"}],"name":"固原","shiCode":"101170401"},{"areaArrayList":[{"areaCode":"101170202","name":"惠农区"},{"areaCode":"101170205","name":"大武口区"},{"areaCode":"101170204","name":"陶乐"},{"areaCode":"101170203","name":"平罗县"}],"name":"石嘴山","shiCode":"101170201"},{"areaArrayList":[{"areaCode":"101170306","name":"青铜峡市"},{"areaCode":"101170303","name":"盐池县"},{"areaCode":"101170302","name":"同心县"}],"name":"吴忠","shiCode":"101170301"},{"areaArrayList":[{"areaCode":"101170504","name":"海原县"},{"areaCode":"101170502","name":"中宁县"}],"name":"中卫","shiCode":"101170501"}]},{"name":"青海","prCode":"","shiList":[{"areaArrayList":[{"areaCode":"101150104","name":"湟中县"},{"areaCode":"101150103","name":"湟源县"},{"areaCode":"101150102","name":"大通县"}],"name":"西宁","shiCode":"101150101"},{"areaArrayList":[{"areaCode":"101150501","name":"玛沁县"},{"areaCode":"101150502","name":"班玛县"},{"areaCode":"101150503","name":"甘德县"},{"areaCode":"101150504","name":"达日县"},{"areaCode":"101150505","name":"久治县"},{"areaCode":"101150506","name":"玛多县"}],"name":"果洛","shiCode":"101150507"},{"areaArrayList":[{"areaCode":"101150801","name":"海晏县"},{"areaCode":"101150803","name":"祁连县"},{"areaCode":"101150806","name":"刚察县"},{"areaCode":"101150802","name":"门源县"}],"name":"海北","shiCode":"101150804"},{"areaArrayList":[{"areaCode":"101150208","name":"平安县"},{"areaCode":"101150202","name":"乐都区"},{"areaCode":"101150203","name":"民和县"},{"areaCode":"101150204","name":"互助县"},{"areaCode":"101150205","name":"化隆县"},{"areaCode":"101150206","name":"循化县"}],"name":"海东","shiCode":"101150207"},{"areaArrayList":[{"areaCode":"101150408","name":"同德县"},{"areaCode":"101150404","name":"贵德县"},{"areaCode":"101150406","name":"兴海县"},{"areaCode":"101150407","name":"贵南县"}],"name":"共和县","shiCode":"101150401"},{"areaArrayList":[{"areaCode":"101150714","name":"格尔木市"},{"areaCode":"101150709","name":"乌兰县"},{"areaCode":"101150715","name":"都兰县"},{"areaCode":"101150708","name":"天峻县"}],"name":"德令哈市","shiCode":"101150701"},{"areaArrayList":[{"areaCode":"101150301","name":"同仁县"},{"areaCode":"101150302","name":"尖扎县"},{"areaCode":"101150303","name":"泽库县"},{"areaCode":"101150304","name":"河南县"}],"name":"黄南","shiCode":"101150305"},{"areaArrayList":[{"areaCode":"101150604","name":"杂多县"},{"areaCode":"101150602","name":"称多县"},{"areaCode":"101150603","name":"治多县"},{"areaCode":"101150605","name":"囊谦县"},{"areaCode":"101150606","name":"曲麻莱县"}],"name":"玉树","shiCode":"101150601"}]},{"name":"山东","prCode":"","shiList":[{"areaArrayList":[{"areaCode":"101120102","name":"长清区"},{"areaCode":"101120104","name":"章丘市"},{"areaCode":"101120105","name":"平阴县"},{"areaCode":"101120106","name":"济阳县"},{"areaCode":"101120103","name":"商河县"}],"name":"济南","shiCode":"101120101"},{"areaArrayList":[{"areaCode":"101120202","name":"崂山区"},{"areaCode":"101120205","name":"胶州市"},{"areaCode":"101120204","name":"即墨市"},{"areaCode":"101120208","name":"平度市"},{"areaCode":"101120206","name":"黄岛区"},{"areaCode":"101120207","name":"莱西市"}],"name":"青岛","shiCode":"101120201"},{"areaArrayList":[{"areaCode":"101121105","name":"惠民县"},{"areaCode":"101121104","name":"阳信县"},{"areaCode":"101121103","name":"无棣县"},{"areaCode":"101121106","name":"沾化区"},{"areaCode":"101121102","name":"博兴县"},{"areaCode":"101121107","name":"邹平县"}],"name":"滨州","shiCode":"101121101"},{"areaArrayList":[{"areaCode":"101120404","name":"兰陵县"},{"areaCode":"101120406","name":"乐陵市"},{"areaCode":"101120411","name":"禹城市"},{"areaCode":"101120409","name":"宁津县"},{"areaCode":"101120407","name":"庆云县"},{"areaCode":"101120403","name":"临邑县"},{"areaCode":"101120405","name":"齐河县"},{"areaCode":"101120408","name":"平原县"},{"areaCode":"101120410","name":"夏津县"},{"areaCode":"101120402","name":"武城县"}],"name":"德州","shiCode":"101120401"},{"areaArrayList":[{"areaCode":"101121202","name":"河口区"},{"areaCode":"101121203","name":"垦利区"},{"areaCode":"101121204","name":"利津县"},{"areaCode":"101121205","name":"广饶县"}],"name":"东营区","shiCode":"101121201"},{"areaArrayList":[{"areaCode":"101121007","name":"曹县"},{"areaCode":"101121009","name":"单县"},{"areaCode":"101121008","name":"成武县"},{"areaCode":"101121006","name":"巨野县"},{"areaCode":"101121003","name":"郓城县"},{"areaCode":"101121002","name":"鄄城县"},{"areaCode":"101121005","name":"定陶区"},{"areaCode":"101121004","name":"东明县"}],"name":"菏泽","shiCode":"101121001"},{"areaArrayList":[{"areaCode":"101120710","name":"曲阜市"},{"areaCode":"101120705","name":"兖州市"},{"areaCode":"101120711","name":"邹城市"},{"areaCode":"101120703","name":"微山县"},{"areaCode":"101120704","name":"鱼台县"},{"areaCode":"101120706","name":"金乡县"},{"areaCode":"101120702","name":"嘉祥县"},{"areaCode":"101120707","name":"汶上县"},{"areaCode":"101120708","name":"泗水县"},{"areaCode":"101120709","name":"梁山县"}],"name":"济宁","shiCode":"101120701"},{"areaArrayList":[{"areaCode":"-2019012565","name":""}],"name":"莱芜","shiCode":"101121601"},{"areaArrayList":[{"areaCode":"101121707","name":"临清市"},{"areaCode":"101121703","name":"阳谷县"},{"areaCode":"101121709","name":"莘县"},{"areaCode":"101121705","name":"茌平县"},{"areaCode":"101121706","name":"东阿县"},{"areaCode":"101121702","name":"冠县"},{"areaCode":"101121704","name":"高唐县"}],"name":"聊城","shiCode":"101121701"},{"areaArrayList":[{"areaCode":"101120903","name":"沂南县"},{"areaCode":"101120906","name":"郯城县"},{"areaCode":"101120910","name":"沂水县"},{"areaCode":"101120904","name":"兰陵县"},{"areaCode":"101120909","name":"费县"},{"areaCode":"101120908","name":"平邑县"},{"areaCode":"101120902","name":"莒南县"},{"areaCode":"101120907","name":"蒙阴县"},{"areaCode":"101120905","name":"临沭县"}],"name":"临沂","shiCode":"101120901"},{"areaArrayList":[{"areaCode":"101121502","name":"五莲县"},{"areaCode":"101121503","name":"莒县"}],"name":"日照","shiCode":"101121501"},{"areaArrayList":[{"areaCode":"101120803","name":"泰山区"},{"areaCode":"101120802","name":"新泰市"},{"areaCode":"101120804","name":"肥城市"},{"areaCode":"101120806","name":"宁阳县"},{"areaCode":"101120805","name":"东平县"}],"name":"泰安","shiCode":"101120801"},{"areaArrayList":[{"areaCode":"101121303","name":"荣成市"},{"areaCode":"101121304","name":"乳山市"},{"areaCode":"101121302","name":"文登市"}],"name":"威海","shiCode":"101121301"},{"areaArrayList":[{"areaCode":"101120602","name":"青州市"},{"areaCode":"101120609","name":"诸城市"},{"areaCode":"101120603","name":"寿光市"},{"areaCode":"101120607","name":"安丘市"},{"areaCode":"101120608","name":"高密市"},{"areaCode":"101120606","name":"昌邑市"},{"areaCode":"101120604","name":"临朐县"},{"areaCode":"101120605","name":"昌乐县"}],"name":"潍坊","shiCode":"101120601"},{"areaArrayList":[{"areaCode":"101120508","name":"福山区"},{"areaCode":"101120509","name":"牟平区"},{"areaCode":"101120505","name":"龙口市"},{"areaCode":"101120510","name":"莱阳市"},{"areaCode":"101120502","name":"莱州市"},{"areaCode":"101120504","name":"蓬莱市"},{"areaCode":"101120506","name":"招远市"},{"areaCode":"101120507","name":"栖霞市"},{"areaCode":"101120511","name":"海阳市"},{"areaCode":"101120503","name":"长岛县"}],"name":"烟台","shiCode":"101120501"},{"areaArrayList":[{"areaCode":"101121403","name":"峄城区"},{"areaCode":"101121404","name":"台儿庄区"},{"areaCode":"101121402","name":"薛城区"},{"areaCode":"101121405","name":"滕州市"}],"name":"枣庄","shiCode":"101121401"},{"areaArrayList":[{"areaCode":"101120308","name":"临淄区"},{"areaCode":"101120302","name":"淄川区"},{"areaCode":"101120303","name":"博山区"},{"areaCode":"101120305","name":"周村区"},{"areaCode":"101120307","name":"桓台县"},{"areaCode":"101120304","name":"高青县"},{"areaCode":"101120306","name":"沂源县"}],"name":"淄博","shiCode":"101120301"}]},{"name":"山西","prCode":"","shiList":[{"areaArrayList":[{"areaCode":"101100102","name":"清徐县"},{"areaCode":"101100103","name":"阳曲县"},{"areaCode":"101100104","name":"娄烦县"},{"areaCode":"101100105","name":"古交市"}],"name":"太原","shiCode":"101100101"},{"areaArrayList":[{"areaCode":"101100508","name":"沁县"},{"areaCode":"101100504","name":"潞城市"},{"areaCode":"101100505","name":"襄垣县"},{"areaCode":"101100503","name":"屯留县"},{"areaCode":"101100506","name":"平顺县"},{"areaCode":"101100502","name":"黎城县"},{"areaCode":"101100511","name":"壶关县"},{"areaCode":"101100509","name":"长子县"},{"areaCode":"101100507","name":"武乡县"},{"areaCode":"101100510","name":"沁源县"}],"name":"长治市","shiCode":"101100501"},{"areaArrayList":[{"areaCode":"101100202","name":"阳高县"},{"areaCode":"101100204","name":"天镇县"},{"areaCode":"101100205","name":"广灵县"},{"areaCode":"101100206","name":"灵丘县"},{"areaCode":"101100207","name":"浑源县"},{"areaCode":"101100208","name":"左云县"},{"areaCode":"101100203","name":"大同县"}],"name":"大同市","shiCode":"101100201"},{"areaArrayList":[{"areaCode":"101100605","name":"高平市"},{"areaCode":"101100602","name":"沁水县"},{"areaCode":"101100603","name":"阳城县"},{"areaCode":"101100604","name":"陵川县"},{"areaCode":"101100606","name":"泽州县"}],"name":"晋城","shiCode":"101100601"},{"areaArrayList":[{"areaCode":"101100402","name":"榆次区"},{"areaCode":"101100412","name":"介休市"},{"areaCode":"101100403","name":"榆社县"},{"areaCode":"101100404","name":"左权县"},{"areaCode":"101100405","name":"和顺县"},{"areaCode":"101100406","name":"昔阳县"},{"areaCode":"101100407","name":"寿阳县"},{"areaCode":"101100408","name":"太谷县"},{"areaCode":"101100409","name":"祁县"},{"areaCode":"101100410","name":"平遥县"},{"areaCode":"101100411","name":"灵石县"}],"name":"晋中","shiCode":"101100401"},{"areaArrayList":[{"areaCode":"101100714","name":"侯马市"},{"areaCode":"101100711","name":"霍州市"},{"areaCode":"101100702","name":"曲沃县"},{"areaCode":"101100713","name":"翼城县"},{"areaCode":"101100707","name":"襄汾县"},{"areaCode":"101100710","name":"洪洞县"},{"areaCode":"101100706","name":"吉县"},{"areaCode":"101100716","name":"安泽县"},{"areaCode":"101100715","name":"浮山县"},{"areaCode":"101100717","name":"古县"},{"areaCode":"101100712","name":"乡宁县"},{"areaCode":"101100705","name":"大宁县"},{"areaCode":"101100704","name":"隰县"},{"areaCode":"101100703","name":"永和县"},{"areaCode":"101100708","name":"蒲县"},{"areaCode":"101100709","name":"汾西县"}],"name":"临汾","shiCode":"101100701"},{"areaArrayList":[{"areaCode":"101101101","name":"离石区"},{"areaCode":"101101110","name":"孝义市"},{"areaCode":"101101111","name":"汾阳市"},{"areaCode":"101101112","name":"文水县"},{"areaCode":"101101113","name":"交城县"},{"areaCode":"101101103","name":"兴县"},{"areaCode":"101101102","name":"临县"},{"areaCode":"101101105","name":"柳林县"},{"areaCode":"101101106","name":"石楼县"},{"areaCode":"101101104","name":"岚县"},{"areaCode":"101101107","name":"方山县"},{"areaCode":"101101109","name":"中阳县"},{"areaCode":"101101108","name":"交口县"}],"name":"吕梁","shiCode":"101101100"},{"areaArrayList":[{"areaCode":"101100902","name":"平鲁区"},{"areaCode":"101100903","name":"山阴县"},{"areaCode":"101100905","name":"应县"},{"areaCode":"101100904","name":"右玉县"},{"areaCode":"101100906","name":"怀仁县"}],"name":"朔州","shiCode":"101100901"},{"areaArrayList":[{"areaCode":"101101015","name":"原平市"},{"areaCode":"101101002","name":"定襄县"},{"areaCode":"101101003","name":"五台县"},{"areaCode":"101101008","name":"代县"},{"areaCode":"101101009","name":"繁峙县"},{"areaCode":"101101007","name":"宁武县"},{"areaCode":"101101012","name":"静乐县"},{"areaCode":"101101006","name":"神池县"},{"areaCode":"101101014","name":"五寨县"},{"areaCode":"101101013","name":"岢岚县"},{"areaCode":"101101004","name":"河曲县"},{"areaCode":"101101011","name":"保德县"},{"areaCode":"101101005","name":"偏关县"}],"name":"忻州","shiCode":"101101001"},{"areaArrayList":[{"areaCode":"101100303","name":"平定县"},{"areaCode":"101100302","name":"盂县"}],"name":"阳泉","shiCode":"101100301"},{"areaArrayList":[{"areaCode":"101100810","name":"永济市"},{"areaCode":"101100805","name":"河津市"},{"areaCode":"101100802","name":"临猗县"},{"areaCode":"101100804","name":"万荣县"},{"areaCode":"101100808","name":"闻喜县"},{"areaCode":"101100803","name":"稷山县"},{"areaCode":"101100806","name":"新绛县"},{"areaCode":"101100807","name":"绛县"},{"areaCode":"101100809","name":"垣曲县"},{"areaCode":"101100812","name":"夏县"},{"areaCode":"101100813","name":"平陆县"},{"areaCode":"101100811","name":"芮城县"}],"name":"运城","shiCode":"101100801"}]},{"name":"陕西","prCode":"","shiList":[{"areaArrayList":[{"areaCode":"101110103","name":"临潼区"},{"areaCode":"101090119","name":"长安区"},{"areaCode":"101110104","name":"蓝田县"},{"areaCode":"101110105","name":"周至县"},{"areaCode":"101110106","name":"户县"},{"areaCode":"101110107","name":"高陵区"}],"name":"西安市","shiCode":"101110101"},{"areaArrayList":[{"areaCode":"101110704","name":"汉阴县"},{"areaCode":"101110703","name":"石泉县"},{"areaCode":"101110710","name":"宁陕县"},{"areaCode":"101110702","name":"紫阳县"},{"areaCode":"101110706","name":"岚皋县"},{"areaCode":"101110707","name":"平利县"},{"areaCode":"101110709","name":"镇坪县"},{"areaCode":"101110705","name":"旬阳县"},{"areaCode":"101110708","name":"白河县"}],"name":"安康市","shiCode":"101110701"},{"areaArrayList":[{"areaCode":"101110912","name":"陈仓区"},{"areaCode":"101110906","name":"凤翔县"},{"areaCode":"101110905","name":"岐山县"},{"areaCode":"101110907","name":"扶风县"},{"areaCode":"101110908","name":"眉县"},{"areaCode":"101110911","name":"陇县"},{"areaCode":"101110903","name":"千阳县"},{"areaCode":"101110904","name":"麟游县"},{"areaCode":"101110910","name":"凤县"},{"areaCode":"101110909","name":"太白县"}],"name":"宝鸡","shiCode":"101110901"},{"areaArrayList":[{"areaCode":"101110810","name":"南郑县"},{"areaCode":"101110806","name":"城固县"},{"areaCode":"101110805","name":"洋县"},{"areaCode":"101110807","name":"西乡县"},{"areaCode":"101110803","name":"勉县"},{"areaCode":"101110809","name":"宁强县"},{"areaCode":"101110802","name":"略阳县"},{"areaCode":"101110811","name":"镇巴县"},{"areaCode":"101110804","name":"留坝县"},{"areaCode":"101110808","name":"佛坪县"}],"name":"汉中","shiCode":"101110801"},{"areaArrayList":[{"areaCode":"101110604","name":"商州区"},{"areaCode":"101110602","name":"洛南县"},{"areaCode":"101110606","name":"丹凤县"},{"areaCode":"101110607","name":"商南县"},{"areaCode":"101110608","name":"山阳县"},{"areaCode":"101110605","name":"镇安县"},{"areaCode":"101110603","name":"柞水县"}],"name":"商洛","shiCode":"101110601"},{"areaArrayList":[{"areaCode":"101111004","name":"耀州区"},{"areaCode":"101111003","name":"宜君县"}],"name":"铜川","shiCode":"101111001"},{"areaArrayList":[{"areaCode":"101110510","name":"韩城市"},{"areaCode":"101110511","name":"华阴市"},{"areaCode":"101110502","name":"华县"},{"areaCode":"101110503","name":"潼关县"},{"areaCode":"101110504","name":"大荔县"},{"areaCode":"101110509","name":"合阳县"},{"areaCode":"101110508","name":"澄城县"},{"areaCode":"101110507","name":"蒲城县"},{"areaCode":"101110505","name":"白水县"},{"areaCode":"101110506","name":"富平县"}],"name":"渭南","shiCode":"101110501"},{"areaArrayList":[{"areaCode":"101110211","name":"兴平市"},{"areaCode":"101110201","name":"三原县"},{"areaCode":"101110205","name":"泾阳县"},{"areaCode":"101110207","name":"乾县"},{"areaCode":"101110202","name":"礼泉县"},{"areaCode":"101110203","name":"永寿县"},{"areaCode":"101110208","name":"彬县"},{"areaCode":"101110209","name":"长武县"},{"areaCode":"101110210","name":"旬邑县"},{"areaCode":"101110204","name":"淳化县"},{"areaCode":"101110206","name":"武功县"}],"name":"咸阳","shiCode":"101110200"},{"areaArrayList":[{"areaCode":"101110312","name":"吴起县"},{"areaCode":"101110301","name":"延长县"},{"areaCode":"101110302","name":"延川县"},{"areaCode":"101110303","name":"子长县"},{"areaCode":"101110307","name":"安塞区"},{"areaCode":"101110306","name":"志丹县"},{"areaCode":"101110308","name":"甘泉县"},{"areaCode":"101110305","name":"富县"},{"areaCode":"101110309","name":"洛川县"},{"areaCode":"101110304","name":"宜川县"},{"areaCode":"101110311","name":"黄龙县"},{"areaCode":"101110310","name":"黄陵县"}],"name":"延安","shiCode":"101110300"},{"areaArrayList":[{"areaCode":"101110413","name":"榆阳区"},{"areaCode":"101110403","name":"神木县"},{"areaCode":"101110402","name":"府谷县"},{"areaCode":"101110407","name":"横山区"},{"areaCode":"101110406","name":"靖边县"},{"areaCode":"101110405","name":"定边县"},{"areaCode":"101110410","name":"绥德县"},{"areaCode":"101110408","name":"米脂县"},{"areaCode":"101110404","name":"佳县"},{"areaCode":"101110411","name":"吴堡县"},{"areaCode":"101110412","name":"清涧县"},{"areaCode":"101110409","name":"子洲县"}],"name":"榆林","shiCode":"101110401"}]},{"name":"上海","prCode":"101020100","shiList":[{"areaArrayList":[{"areaCode":"-2019012565","name":""}],"name":"闵行区","shiCode":"101020200"},{"areaArrayList":[{"areaCode":"-2019012565","name":""}],"name":"浦东新区","shiCode":"101020600"},{"areaArrayList":[{"areaCode":"-2019012565","name":""}],"name":"松江区","shiCode":"101020900"},{"areaArrayList":[{"areaCode":"-2019012565","name":""}],"name":"嘉定区","shiCode":"101020500"},{"areaArrayList":[{"areaCode":"-2019012565","name":""}],"name":"宝山区","shiCode":"101020300"},{"areaArrayList":[{"areaCode":"-2019012565","name":""}],"name":"青浦区","shiCode":"101020800"},{"areaArrayList":[{"areaCode":"-2019012565","name":""}],"name":"金山区","shiCode":"101020700"},{"areaArrayList":[{"areaCode":"-2019012565","name":""}],"name":"奉贤区","shiCode":"101021000"},{"areaArrayList":[{"areaCode":"-2019012565","name":""}],"name":"崇明区","shiCode":"101021100"}]},{"name":"四川","prCode":"","shiList":[{"areaArrayList":[{"areaCode":"101270102","name":"龙泉驿区"},{"areaCode":"101270115","name":"青白江区"},{"areaCode":"101270103","name":"新都区"},{"areaCode":"101270104","name":"温江区"},{"areaCode":"101270111","name":"都江堰市"},{"areaCode":"101270112","name":"彭州市"},{"areaCode":"101270113","name":"邛崃市"},{"areaCode":"101270114","name":"崇州市"},{"areaCode":"101270105","name":"金堂县"},{"areaCode":"101270106","name":"双流区"},{"areaCode":"101270107","name":"郫县"},{"areaCode":"101270108","name":"大邑县"},{"areaCode":"101270109","name":"蒲江县"},{"areaCode":"101270110","name":"新津县"},{"areaCode":"101270121","name":"简阳市"}],"name":"成都","shiCode":"101270101"},{"areaArrayList":[{"areaCode":"101270408","name":"江油市"},{"areaCode":"101270403","name":"盐亭县"},{"areaCode":"101270402","name":"三台县"},{"areaCode":"101270407","name":"平武县"},{"areaCode":"101270404","name":"安县"},{"areaCode":"101270405","name":"梓潼县"},{"areaCode":"101270406","name":"北川县"}],"name":"绵阳","shiCode":"101270401"},{"areaArrayList":[{"areaCode":"101271910","name":"马尔康市"},{"areaCode":"101271902","name":"汶川县"},{"areaCode":"101271903","name":"理县"},{"areaCode":"101271904","name":"茂县"},{"areaCode":"101271905","name":"松潘县"},{"areaCode":"101271906","name":"九寨沟县"},{"areaCode":"101271907","name":"金川县"},{"areaCode":"101271908","name":"小金县"},{"areaCode":"101271909","name":"黑水县"},{"areaCode":"101271911","name":"壤塘县"},{"areaCode":"101271912","name":"若尔盖县"},{"areaCode":"101271913","name":"红原县"}],"name":"阿坝","shiCode":"101271901"},{"areaArrayList":[{"areaCode":"101270902","name":"通江县"},{"areaCode":"101270903","name":"南江县"},{"areaCode":"101270904","name":"平昌县"}],"name":"巴中","shiCode":"101270901"},{"areaArrayList":[{"areaCode":"101270606","name":"万源市"},{"areaCode":"101270608","name":"达川区"},{"areaCode":"101270602","name":"宣汉县"},{"areaCode":"101270603","name":"开江县"},{"areaCode":"101270604","name":"大竹县"},{"areaCode":"101270605","name":"渠县"}],"name":"达州","shiCode":"101270601"},{"areaArrayList":[{"areaCode":"101272003","name":"广汉市"},{"areaCode":"101272004","name":"什邡市"},{"areaCode":"101272005","name":"绵竹市"},{"areaCode":"101272006","name":"罗江区"},{"areaCode":"101272002","name":"中江县"}],"name":"德阳","shiCode":"101272001"},{"areaArrayList":[{"areaCode":"101271802","name":"康定市"},{"areaCode":"101271804","name":"丹巴县"},{"areaCode":"101271803","name":"泸定县"},{"areaCode":"101271808","name":"炉霍县"},{"areaCode":"101271805","name":"九龙县"},{"areaCode":"101271806","name":"雅江县"},{"areaCode":"101271809","name":"新龙县"},{"areaCode":"101271807","name":"道孚县"},{"areaCode":"101271811","name":"白玉县"},{"areaCode":"101271814","name":"理塘县"},{"areaCode":"101271810","name":"德格县"},{"areaCode":"101271816","name":"乡城县"},{"areaCode":"101271812","name":"石渠县"},{"areaCode":"101271817","name":"稻城县"},{"areaCode":"101271813","name":"色达县"},{"areaCode":"101271815","name":"巴塘县"},{"areaCode":"101271818","name":"得荣县"}],"name":"甘孜","shiCode":"101271801"},{"areaArrayList":[{"areaCode":"101270805","name":"华蓥市"},{"areaCode":"101270802","name":"岳池县"},{"areaCode":"101270803","name":"武胜县"},{"areaCode":"101270804","name":"邻水县"}],"name":"广安市","shiCode":"101270801"},{"areaArrayList":[{"areaCode":"101272102","name":"旺苍县"},{"areaCode":"101272103","name":"青川县"},{"areaCode":"101272104","name":"剑阁县"},{"areaCode":"101272105","name":"苍溪县"}],"name":"广元","shiCode":"101272101"},{"areaArrayList":[{"areaCode":"101271408","name":"峨眉山市"},{"areaCode":"101271402","name":"犍为县"},{"areaCode":"101271403","name":"井研县"},{"areaCode":"101271404","name":"夹江县"},{"areaCode":"101271405","name":"沐川县"},{"areaCode":"101271406","name":"峨边县"},{"areaCode":"101271407","name":"马边县"}],"name":"乐山","shiCode":"101271401"},{"areaArrayList":[{"areaCode":"101271610","name":"西昌市"},{"areaCode":"101271604","name":"盐源县"},{"areaCode":"101271605","name":"德昌县"},{"areaCode":"101271606","name":"会理县"},{"areaCode":"101271607","name":"会东县"},{"areaCode":"101271608","name":"宁南县"},{"areaCode":"101271609","name":"普格县"},{"areaCode":"101271619","name":"布拖县"},{"areaCode":"101271611","name":"金阳县"},{"areaCode":"101271612","name":"昭觉县"},{"areaCode":"101271613","name":"喜德县"},{"areaCode":"101271614","name":"冕宁县"},{"areaCode":"101271615","name":"越西县"},{"areaCode":"101271616","name":"甘洛县"},{"areaCode":"101271618","name":"美姑县"},{"areaCode":"101271617","name":"雷波县"},{"areaCode":"101271603","name":"木里县"}],"name":"凉山","shiCode":"101271601"},{"areaArrayList":[{"areaCode":"101271502","name":"仁寿县"},{"areaCode":"101271503","name":"彭山区"},{"areaCode":"101271504","name":"洪雅县"},{"areaCode":"101271505","name":"丹棱县"},{"areaCode":"101271506","name":"青神县"}],"name":"眉山市","shiCode":"101271501"},{"areaArrayList":[{"areaCode":"101270507","name":"阆中市"},{"areaCode":"101270502","name":"南部县"},{"areaCode":"101270503","name":"营山县"},{"areaCode":"101270504","name":"蓬安县"},{"areaCode":"101270505","name":"仪陇县"},{"areaCode":"101270506","name":"西充县"}],"name":"南充","shiCode":"101270501"},{"areaArrayList":[{"areaCode":"101271202","name":"东兴区"},{"areaCode":"101271203","name":"威远县"},{"areaCode":"101271204","name":"资中县"},{"areaCode":"101271205","name":"隆昌县"}],"name":"内江","shiCode":"101271201"},{"areaArrayList":[{"areaCode":"101270202","name":"仁和区"},{"areaCode":"101270203","name":"米易县"},{"areaCode":"101270204","name":"盐边县"}],"name":"攀枝花","shiCode":"101270201"},{"areaArrayList":[{"areaCode":"101270702","name":"蓬溪县"},{"areaCode":"101270703","name":"射洪县"}],"name":"遂宁","shiCode":"101270701"},{"areaArrayList":[{"areaCode":"101271702","name":"名山区"},{"areaCode":"101271703","name":"荥经县"},{"areaCode":"101271704","name":"汉源县"},{"areaCode":"101271705","name":"石棉县"},{"areaCode":"101271706","name":"天全县"},{"areaCode":"101271707","name":"芦山县"},{"areaCode":"101271708","name":"宝兴县"}],"name":"雅安","shiCode":"101271701"},{"areaArrayList":[{"areaCode":"101271103","name":"叙州区"},{"areaCode":"101271104","name":"南溪区"},{"areaCode":"101271105","name":"江安县"},{"areaCode":"101271106","name":"长宁县"},{"areaCode":"101271107","name":"高县"},{"areaCode":"101271108","name":"珙县"},{"areaCode":"101271109","name":"筠连县"},{"areaCode":"101271110","name":"兴文县"},{"areaCode":"101271111","name":"屏山县"}],"name":"宜宾","shiCode":"101271101"},{"areaArrayList":[{"areaCode":"101271302","name":"安岳县"},{"areaCode":"101271303","name":"乐至县"}],"name":"资阳市","shiCode":"101271301"},{"areaArrayList":[{"areaCode":"101270303","name":"荣县"},{"areaCode":"101270302","name":"富顺县"}],"name":"自贡","shiCode":"101270301"},{"areaArrayList":[{"areaCode":"101271007","name":"纳溪区"},{"areaCode":"101271003","name":"泸县"},{"areaCode":"101271004","name":"合江县"},{"areaCode":"101271005","name":"叙永县"},{"areaCode":"101271006","name":"古蔺县"}],"name":"泸州","shiCode":"101271001"}]},{"name":"天津","prCode":"101030100","shiList":[{"areaArrayList":[{"areaCode":"-2019012565","name":""}],"name":"东丽区","shiCode":"101030400"},{"areaArrayList":[{"areaCode":"-2019012565","name":""}],"name":"津南区","shiCode":"101031000"},{"areaArrayList":[{"areaCode":"-2019012565","name":""}],"name":"西青区","shiCode":"101030500"},{"areaArrayList":[{"areaCode":"-2019012565","name":""}],"name":"北辰区","shiCode":"101030600"},{"areaArrayList":[{"areaCode":"-2019012565","name":""}],"name":"滨海新区","shiCode":"101031100"},{"areaArrayList":[{"areaCode":"-2019012565","name":""}],"name":"和平区","shiCode":"101030800"},{"areaArrayList":[{"areaCode":"-2019012565","name":""}],"name":"河东区","shiCode":"101031200"},{"areaArrayList":[{"areaCode":"-2019012565","name":""}],"name":"武清区","shiCode":"101030200"},{"areaArrayList":[{"areaCode":"-2019012565","name":""}],"name":"宝坻区","shiCode":"101030300"},{"areaArrayList":[{"areaCode":"-2019012565","name":""}],"name":"宁河区","shiCode":"101030700"},{"areaArrayList":[{"areaCode":"-2019012565","name":""}],"name":"静海区","shiCode":"101030900"},{"areaArrayList":[{"areaCode":"-2019012565","name":""}],"name":"蓟州区","shiCode":"101031400"}]},{"name":"西藏","prCode":"","shiList":[{"areaArrayList":[{"areaCode":"101140104","name":"林周县"},{"areaCode":"101140102","name":"当雄县"},{"areaCode":"101140103","name":"尼木县"},{"areaCode":"101140106","name":"曲水县"},{"areaCode":"101140105","name":"堆龙德庆区"},{"areaCode":"101140107","name":"达孜县"},{"areaCode":"101140108","name":"墨竹工卡县"}],"name":"拉萨","shiCode":"101140101"},{"areaArrayList":[{"areaCode":"101140707","name":"噶尔县"},{"areaCode":"101140705","name":"普兰县"},{"areaCode":"101140706","name":"札达县"},{"areaCode":"101140708","name":"日土县"},{"areaCode":"101140709","name":"革吉县"},{"areaCode":"101140702","name":"改则县"},{"areaCode":"101140710","name":"措勤县"}],"name":"阿里","shiCode":"101140701"},{"areaArrayList":[{"areaCode":"101140509","name":"江达县"},{"areaCode":"101140511","name":"贡觉县"},{"areaCode":"101140507","name":"类乌齐县"},{"areaCode":"101140502","name":"丁青县"},{"areaCode":"101140510","name":"察雅县"},{"areaCode":"101140508","name":"八宿县"},{"areaCode":"101140505","name":"左贡县"},{"areaCode":"101140506","name":"芒康县"},{"areaCode":"101140504","name":"洛隆县"},{"areaCode":"101140503","name":"边坝县"}],"name":"昌都市","shiCode":"101140501"},{"areaArrayList":[{"areaCode":"101140405","name":"工布江达县"},{"areaCode":"101140403","name":"米林县"},{"areaCode":"101140407","name":"墨脱县"},{"areaCode":"101140402","name":"波密县"},{"areaCode":"101140404","name":"察隅县"},{"areaCode":"101140406","name":"朗县"}],"name":"林芝市","shiCode":"101140401"},{"areaArrayList":[{"areaCode":"101140603","name":"嘉黎县"},{"areaCode":"101140609","name":"比如县"},{"areaCode":"101140607","name":"聂荣县"},{"areaCode":"101140605","name":"安多县"},{"areaCode":"101140611","name":"申扎县"},{"areaCode":"101140606","name":"索县"},{"areaCode":"101140604","name":"班戈县"},{"areaCode":"101140608","name":"巴青县"},{"areaCode":"101140602","name":"尼玛县"}],"name":"那曲","shiCode":"101140601"},{"areaArrayList":[{"areaCode":"101140203","name":"南木林县"},{"areaCode":"101140206","name":"江孜县"},{"areaCode":"101140205","name":"定日县"},{"areaCode":"101140213","name":"萨迦县"},{"areaCode":"101140202","name":"拉孜县"},{"areaCode":"101140211","name":"昂仁县"},{"areaCode":"101140214","name":"谢通门县"},{"areaCode":"101140217","name":"白朗县"},{"areaCode":"101140220","name":"仁布县"},{"areaCode":"101140219","name":"康马县"},{"areaCode":"101140212","name":"定结县"},{"areaCode":"101140208","name":"仲巴县"},{"areaCode":"101140218","name":"亚东县"},{"areaCode":"101140210","name":"吉隆县"},{"areaCode":"101140204","name":"聂拉木县"},{"areaCode":"101140209","name":"萨嘎县"},{"areaCode":"101140216","name":"岗巴县"}],"name":"日喀则市","shiCode":"101140201"},{"areaArrayList":[{"areaCode":"101140309","name":"乃东区"},{"areaCode":"101140303","name":"扎囊县"},{"areaCode":"101140302","name":"贡嘎县"},{"areaCode":"101140310","name":"桑日县"},{"areaCode":"101140313","name":"琼结县"},{"areaCode":"101140314","name":"曲松县"},{"areaCode":"101140312","name":"措美县"},{"areaCode":"101140311","name":"洛扎县"},{"areaCode":"101140304","name":"加查县"},{"areaCode":"101140307","name":"隆子县"},{"areaCode":"101140306","name":"错那县"},{"areaCode":"101140305","name":"浪卡子县"}],"name":"山南","shiCode":"101140301"}]},{"name":"新疆","prCode":"","shiList":[{"areaArrayList":[{"areaCode":"101130105","name":"达坂城区"},{"areaCode":"101130113","name":"乌鲁木齐县"}],"name":"乌鲁木齐市","shiCode":"101130101"},{"areaArrayList":[{"areaCode":"101130803","name":"温宿县"},{"areaCode":"101130807","name":"库车县"},{"areaCode":"101130806","name":"沙雅县"},{"areaCode":"101130805","name":"新和县"},{"areaCode":"101130804","name":"拜城县"},{"areaCode":"101130802","name":"乌什县"},{"areaCode":"101130809","name":"阿瓦提县"},{"areaCode":"101130808","name":"柯坪县"}],"name":"阿克苏市","shiCode":"101130801"},{"areaArrayList":[{"areaCode":"-2019012565","name":""}],"name":"阿拉尔市","shiCode":"101130701"},{"areaArrayList":[{"areaCode":"101130601","name":"库尔勒"},{"areaCode":"101130602","name":"轮台县"},{"areaCode":"101130603","name":"尉犁县"},{"areaCode":"101130604","name":"若羌县"},{"areaCode":"101130605","name":"且末县"},{"areaCode":"101130607","name":"焉耆县"},{"areaCode":"101130606","name":"和静县"},{"areaCode":"101130608","name":"和硕县"},{"areaCode":"101130612","name":"博湖县"}],"name":"巴音郭楞","shiCode":"101130609"},{"areaArrayList":[{"areaCode":"101131601","name":"博乐市"},{"areaCode":"101131603","name":"精河县"},{"areaCode":"101131602","name":"温泉县"}],"name":"博尔塔拉","shiCode":"101131604"},{"areaArrayList":[{"areaCode":"101130402","name":"呼图壁县"},{"areaCode":"101130403","name":"米泉"},{"areaCode":"101130404","name":"阜康市"},{"areaCode":"101130407","name":"玛纳斯县"},{"areaCode":"101130406","name":"奇台县"},{"areaCode":"101130405","name":"吉木萨尔县"},{"areaCode":"101130408","name":"木垒县"}],"name":"昌吉市","shiCode":"101130401"},{"areaArrayList":[{"areaCode":"101131204","name":"伊吾县"},{"areaCode":"101131203","name":"巴里坤"}],"name":"哈密市","shiCode":"101131201"},{"areaArrayList":[{"areaCode":"101131304","name":"墨玉县"},{"areaCode":"101131302","name":"皮山县"},{"areaCode":"101131305","name":"洛浦县"},{"areaCode":"101131303","name":"策勒县"},{"areaCode":"101131307","name":"于田县"},{"areaCode":"101131306","name":"民丰县"}],"name":"和田市","shiCode":"101131301"},{"areaArrayList":[{"areaCode":"101130911","name":"疏附县"},{"areaCode":"101130912","name":"疏勒县"},{"areaCode":"101130902","name":"英吉沙县"},{"areaCode":"101130907","name":"泽普县"},{"areaCode":"101130905","name":"莎车县"},{"areaCode":"101130906","name":"叶城县"},{"areaCode":"101130904","name":"麦盖提县"},{"areaCode":"101130909","name":"岳普湖县"},{"areaCode":"101130910","name":"伽师县"},{"areaCode":"101130908","name":"巴楚县"},{"areaCode":"101130903","name":"塔什库尔干"}],"name":"喀什市","shiCode":"101130901"},{"areaArrayList":[{"areaCode":"-2019012565","name":""}],"name":"克拉玛依市","shiCode":"101130201"},{"areaArrayList":[{"areaCode":"-2019012565","name":""}],"name":"石河子市","shiCode":"101130301"},{"areaArrayList":[{"areaCode":"101130504","name":"鄯善县"},{"areaCode":"101130502","name":"托克逊县"}],"name":"吐鲁番市","shiCode":"101130501"},{"areaArrayList":[{"areaCode":"101131101","name":"塔城市"},{"areaCode":"101131401","name":"阿勒泰"},{"areaCode":"101131104","name":"和布克赛尔"},{"areaCode":"101131001","name":"伊宁市"},{"areaCode":"101131406","name":"布尔津县"},{"areaCode":"101131011","name":"奎屯市"},{"areaCode":"101131106","name":"乌苏市"},{"areaCode":"101131103","name":"额敏县"},{"areaCode":"101131408","name":"富蕴县"},{"areaCode":"101131004","name":"伊宁县"},{"areaCode":"101131407","name":"福海县"},{"areaCode":"101131009","name":"霍城县"},{"areaCode":"101131107","name":"沙湾县"},{"areaCode":"101131005","name":"巩留县"},{"areaCode":"101131402","name":"哈巴河县"},{"areaCode":"101131105","name":"托里县"},{"areaCode":"101131409","name":"青河县"},{"areaCode":"101131006","name":"新源县"},{"areaCode":"101131102","name":"裕民县"},{"areaCode":"101131405","name":"吉木乃县"},{"areaCode":"101131007","name":"昭苏县"},{"areaCode":"101131008","name":"特克斯县"},{"areaCode":"101131003","name":"尼勒克县"},{"areaCode":"101131002","name":"察布查尔"}],"name":"伊犁","shiCode":"101131012"}]},{"name":"云南","prCode":"","shiList":[{"areaArrayList":[{"areaCode":"101290103","name":"东川区"},{"areaCode":"101290112","name":"安宁市"},{"areaCode":"101290108","name":"呈贡区"},{"areaCode":"101290105","name":"晋宁县"},{"areaCode":"101290109","name":"富民县"},{"areaCode":"101290106","name":"宜良县"},{"areaCode":"101290110","name":"嵩明县"},{"areaCode":"101290107","name":"石林县"},{"areaCode":"101290111","name":"禄劝县"},{"areaCode":"101290104","name":"寻甸县"}],"name":"昆明","shiCode":"101290101"},{"areaArrayList":[{"areaCode":"101291204","name":"兰坪县"},{"areaCode":"101291205","name":"泸水市"},{"areaCode":"101291203","name":"福贡县"},{"areaCode":"101291207","name":"贡山县"}],"name":"怒江","shiCode":"101291201"},{"areaArrayList":[{"areaCode":"101290912","name":"宁洱县"},{"areaCode":"101290905","name":"思茅区"},{"areaCode":"101290906","name":"墨江县"},{"areaCode":"101290903","name":"景东县"},{"areaCode":"101290902","name":"景谷县"},{"areaCode":"101290911","name":"镇沅县"},{"areaCode":"101290907","name":"江城县"},{"areaCode":"101290908","name":"孟连县"},{"areaCode":"101290904","name":"澜沧县"},{"areaCode":"101290909","name":"西盟县"}],"name":"普洱","shiCode":"101290901"},{"areaArrayList":[{"areaCode":"101291404","name":"宁蒗县"},{"areaCode":"101291402","name":"永胜县"},{"areaCode":"101291403","name":"华坪县"}],"name":"丽江","shiCode":"101291401"},{"areaArrayList":[{"areaCode":"101290504","name":"施甸县"},{"areaCode":"101290506","name":"腾冲市"},{"areaCode":"101290503","name":"龙陵县"},{"areaCode":"101290505","name":"昌宁县"}],"name":"保山","shiCode":"101290501"},{"areaArrayList":[{"areaCode":"101290809","name":"双柏县"},{"areaCode":"101290805","name":"牟定县"},{"areaCode":"101290806","name":"南华县"},{"areaCode":"101290804","name":"姚安县"},{"areaCode":"101290802","name":"大姚县"},{"areaCode":"101290810","name":"永仁县"},{"areaCode":"101290803","name":"元谋县"},{"areaCode":"101290807","name":"武定县"},{"areaCode":"101290808","name":"禄丰县"}],"name":"楚雄市","shiCode":"101290801"},{"areaArrayList":[{"areaCode":"101290207","name":"祥云县"},{"areaCode":"101290205","name":"宾川县"},{"areaCode":"101290206","name":"弥渡县"},{"areaCode":"101290204","name":"永平县"},{"areaCode":"101290202","name":"云龙县"},{"areaCode":"101290210","name":"洱源县"},{"areaCode":"101290209","name":"剑川县"},{"areaCode":"101290211","name":"鹤庆县"},{"areaCode":"101290203","name":"漾濞县"},{"areaCode":"101290212","name":"南涧县"},{"areaCode":"101290208","name":"巍山县"}],"name":"大理市","shiCode":"101290201"},{"areaArrayList":[{"areaCode":"101291508","name":"芒市"},{"areaCode":"101291506","name":"瑞丽市"},{"areaCode":"101291507","name":"梁河县"},{"areaCode":"101291504","name":"盈江县"},{"areaCode":"101291503","name":"陇川县"}],"name":"德宏","shiCode":"101291501"},{"areaArrayList":[{"areaCode":"101291301","name":"香格里拉市"},{"areaCode":"101291302","name":"德钦县"},{"areaCode":"101291303","name":"维西县"}],"name":"迪庆","shiCode":"101291305"},{"areaArrayList":[{"areaCode":"101290311","name":"泸西县"},{"areaCode":"101290309","name":"蒙自市"},{"areaCode":"101290308","name":"个旧市"},{"areaCode":"101290307","name":"开远市"},{"areaCode":"101290306","name":"绿春县"},{"areaCode":"101290303","name":"建水县"},{"areaCode":"101290302","name":"石屏县"},{"areaCode":"101290304","name":"弥勒市"},{"areaCode":"101290305","name":"元阳县"},{"areaCode":"101290312","name":"金平县"},{"areaCode":"101290313","name":"河口县"},{"areaCode":"101290310","name":"屏边县"}],"name":"红河县","shiCode":"101290301"},{"areaArrayList":[{"areaCode":"101291105","name":"凤庆县"},{"areaCode":"101291107","name":"云县"},{"areaCode":"101291106","name":"永德县"},{"areaCode":"101291108","name":"镇康县"},{"areaCode":"101291104","name":"双江县"},{"areaCode":"101291103","name":"耿马县"},{"areaCode":"101291102","name":"沧源县"}],"name":"临沧","shiCode":"101291101"},{"areaArrayList":[{"areaCode":"101290409","name":"宣威市"},{"areaCode":"101290405","name":"马龙县"},{"areaCode":"101290403","name":"陆良县"},{"areaCode":"101290406","name":"师宗县"},{"areaCode":"101290407","name":"罗平县"},{"areaCode":"101290404","name":"富源县"},{"areaCode":"101290408","name":"会泽县"},{"areaCode":"101290402","name":"沾益区"}],"name":"曲靖","shiCode":"101290401"},{"areaArrayList":[{"areaCode":"101290605","name":"砚山县"},{"areaCode":"101290602","name":"西畴县"},{"areaCode":"101290604","name":"麻栗坡县"},{"areaCode":"101290603","name":"马关县"},{"areaCode":"101290606","name":"丘北县"},{"areaCode":"101290607","name":"广南县"},{"areaCode":"101290608","name":"富宁县"}],"name":"文山市","shiCode":"101290601"},{"areaArrayList":[{"areaCode":"101291601","name":"景洪市"},{"areaCode":"101291603","name":"勐海县"},{"areaCode":"101291605","name":"勐腊县"}],"name":"西双版纳","shiCode":"101291602"},{"areaArrayList":[{"areaCode":"101290703","name":"江川区"},{"areaCode":"101290702","name":"澄江县"},{"areaCode":"101290704","name":"通海县"},{"areaCode":"101290705","name":"华宁县"},{"areaCode":"101290707","name":"易门县"},{"areaCode":"101290708","name":"峨山县"},{"areaCode":"101290706","name":"新平县"},{"areaCode":"101290709","name":"元江县"}],"name":"玉溪","shiCode":"101290701"},{"areaArrayList":[{"areaCode":"101291002","name":"鲁甸县"},{"areaCode":"101291006","name":"巧家县"},{"areaCode":"101291009","name":"盐津县"},{"areaCode":"101291010","name":"大关县"},{"areaCode":"101291008","name":"永善县"},{"areaCode":"101291007","name":"绥江县"},{"areaCode":"101291004","name":"镇雄县"},{"areaCode":"101291003","name":"彝良县"},{"areaCode":"101291005","name":"威信县"},{"areaCode":"101291011","name":"水富县"}],"name":"昭通","shiCode":"101291001"}]},{"name":"浙江","prCode":"","shiList":[{"areaArrayList":[{"areaCode":"101210102","name":"萧山区"},{"areaCode":"101210106","name":"余杭区"},{"areaCode":"101210105","name":"建德市"},{"areaCode":"101210108","name":"富阳区"},{"areaCode":"101210107","name":"临安市"},{"areaCode":"101210103","name":"桐庐县"},{"areaCode":"101210104","name":"淳安县"}],"name":"杭州","shiCode":"101210101"},{"areaArrayList":[{"areaCode":"101210204","name":"德清县"},{"areaCode":"101210202","name":"长兴县"},{"areaCode":"101210203","name":"安吉县"}],"name":"湖州","shiCode":"101210201"},{"areaArrayList":[{"areaCode":"101210303","name":"海宁市"},{"areaCode":"101210302","name":"嘉善县"},{"areaCode":"101210305","name":"平湖市"},{"areaCode":"101210304","name":"桐乡市"},{"areaCode":"101210306","name":"海盐县"}],"name":"嘉兴","shiCode":"101210301"},{"areaArrayList":[{"areaCode":"101210903","name":"兰溪市"},{"areaCode":"101210904","name":"义乌市"},{"areaCode":"101210905","name":"东阳市"},{"areaCode":"101210907","name":"永康市"},{"areaCode":"101210906","name":"武义县"},{"areaCode":"101210902","name":"浦江县"},{"areaCode":"101210908","name":"磐安县"}],"name":"金华","shiCode":"101210901"},{"areaArrayList":[{"areaCode":"101210803","name":"龙泉市"},{"areaCode":"101210805","name":"青田县"},{"areaCode":"101210804","name":"缙云县"},{"areaCode":"101210802","name":"遂昌县"},{"areaCode":"101210808","name":"松阳县"},{"areaCode":"101210806","name":"云和县"},{"areaCode":"101210807","name":"庆元县"},{"areaCode":"101210809","name":"景宁县"}],"name":"丽水","shiCode":"101210801"},{"areaArrayList":[{"areaCode":"101210412","name":"镇海区"},{"areaCode":"101210410","name":"北仑区"},{"areaCode":"101210411","name":"鄞州区"},{"areaCode":"101210404","name":"余姚市"},{"areaCode":"101210403","name":"慈溪市"},{"areaCode":"101210405","name":"奉化市"},{"areaCode":"101210406","name":"象山县"},{"areaCode":"101210408","name":"宁海县"}],"name":"宁波","shiCode":"101210401"},{"areaArrayList":[{"areaCode":"101210503","name":"上虞区"},{"areaCode":"101210505","name":"嵊州市"},{"areaCode":"101210501","name":"越城区"},{"areaCode":"101210504","name":"新昌县"},{"areaCode":"101210502","name":"诸暨市"}],"name":"绍兴","shiCode":"101210507"},{"areaArrayList":[{"areaCode":"101210611","name":"椒江区"},{"areaCode":"101210612","name":"黄岩区"},{"areaCode":"101210613","name":"路桥区"},{"areaCode":"101210607","name":"温岭市"},{"areaCode":"101210610","name":"临海市"},{"areaCode":"101210603","name":"玉环县"},{"areaCode":"101210604","name":"三门县"},{"areaCode":"101210605","name":"天台县"},{"areaCode":"101210606","name":"仙居县"}],"name":"台州","shiCode":"101210601"},{"areaArrayList":[{"areaCode":"101210705","name":"瑞安市"},{"areaCode":"101210707","name":"乐清市"},{"areaCode":"101210706","name":"洞头区"},{"areaCode":"101210708","name":"永嘉县"},{"areaCode":"101210704","name":"平阳县"},{"areaCode":"101210709","name":"苍南县"},{"areaCode":"101210703","name":"文成县"},{"areaCode":"101210702","name":"泰顺县"}],"name":"温州","shiCode":"101210701"},{"areaArrayList":[{"areaCode":"101211106","name":"定海区"},{"areaCode":"101021500","name":"普陀区"},{"areaCode":"101211104","name":"岱山县"},{"areaCode":"101211102","name":"嵊泗县"}],"name":"舟山","shiCode":"101211101"},{"areaArrayList":[{"areaCode":"101211006","name":"衢江区"},{"areaCode":"101211005","name":"江山市"},{"areaCode":"101211002","name":"常山县"},{"areaCode":"101211003","name":"开化县"},{"areaCode":"101211004","name":"龙游县"}],"name":"衢州","shiCode":"101211001"}]},{"name":"重庆","prCode":"101040100","shiList":[{"areaArrayList":[{"areaCode":"-2019012565","name":""}],"name":"合川区","shiCode":"101040300"},{"areaArrayList":[{"areaCode":"-2019012565","name":""}],"name":"江津区","shiCode":"101040500"},{"areaArrayList":[{"areaCode":"-2019012565","name":""}],"name":"南川区","shiCode":"101040400"},{"areaArrayList":[{"areaCode":"-2019012565","name":""}],"name":"永川区","shiCode":"101040200"},{"areaArrayList":[{"areaCode":"-2019012565","name":""}],"name":"渝北区","shiCode":"101040700"},{"areaArrayList":[{"areaCode":"-2019012565","name":""}],"name":"万盛","shiCode":"101040600"},{"areaArrayList":[{"areaCode":"-2019012565","name":""}],"name":"万州区","shiCode":"101041300"},{"areaArrayList":[{"areaCode":"-2019012565","name":""}],"name":"北碚区","shiCode":"101040800"},{"areaArrayList":[{"areaCode":"-2019012565","name":""}],"name":"沙坪坝区","shiCode":"101043800"},{"areaArrayList":[{"areaCode":"-2019012565","name":""}],"name":"巴南区","shiCode":"101040900"},{"areaArrayList":[{"areaCode":"-2019012565","name":""}],"name":"涪陵区","shiCode":"101041400"},{"areaArrayList":[{"areaCode":"-2019012565","name":""}],"name":"黔江区","shiCode":"101041100"},{"areaArrayList":[{"areaCode":"-2019012565","name":""}],"name":"长寿区","shiCode":"101041000"},{"areaArrayList":[{"areaCode":"-2019012565","name":""}],"name":"綦江区","shiCode":"101043300"},{"areaArrayList":[{"areaCode":"-2019012565","name":""}],"name":"潼南区","shiCode":"101042100"},{"areaArrayList":[{"areaCode":"-2019012565","name":""}],"name":"铜梁区","shiCode":"101042800"},{"areaArrayList":[{"areaCode":"-2019012565","name":""}],"name":"大足区","shiCode":"101042600"},{"areaArrayList":[{"areaCode":"-2019012565","name":""}],"name":"荣昌区","shiCode":"101042700"},{"areaArrayList":[{"areaCode":"-2019012565","name":""}],"name":"璧山区","shiCode":"101042900"},{"areaArrayList":[{"areaCode":"-2019012565","name":""}],"name":"垫江县","shiCode":"101042200"},{"areaArrayList":[{"areaCode":"-2019012565","name":""}],"name":"武隆县","shiCode":"101043100"},{"areaArrayList":[{"areaCode":"-2019012565","name":""}],"name":"丰都县","shiCode":"101043000"},{"areaArrayList":[{"areaCode":"-2019012565","name":""}],"name":"城口县","shiCode":"101041600"},{"areaArrayList":[{"areaCode":"-2019012565","name":""}],"name":"梁平县","shiCode":"101042300"},{"areaArrayList":[{"areaCode":"-2019012565","name":""}],"name":"开州区","shiCode":"101044100"},{"areaArrayList":[{"areaCode":"-2019012565","name":""}],"name":"巫溪县","shiCode":"101041800"},{"areaArrayList":[{"areaCode":"-2019012565","name":""}],"name":"巫山县","shiCode":"101042000"},{"areaArrayList":[{"areaCode":"-2019012565","name":""}],"name":"奉节县","shiCode":"101041900"},{"areaArrayList":[{"areaCode":"-2019012565","name":""}],"name":"云阳县","shiCode":"101041700"},{"areaArrayList":[{"areaCode":"-2019012565","name":""}],"name":"忠县","shiCode":"101042400"},{"areaArrayList":[{"areaCode":"-2019012565","name":""}],"name":"石柱县","shiCode":"101042500"},{"areaArrayList":[{"areaCode":"-2019012565","name":""}],"name":"彭水县","shiCode":"101043200"},{"areaArrayList":[{"areaCode":"-2019012565","name":""}],"name":"酉阳县","shiCode":"101043400"},{"areaArrayList":[{"areaCode":"-2019012565","name":""}],"name":"秀山县","shiCode":"101043600"}]},{"name":"香港","prCode":"101320101","shiList":[{"areaArrayList":[{"areaCode":"-2019012565","name":""}],"name":"九龙","shiCode":"101320102"}]},{"name":"澳门","prCode":"101330101","shiList":[{"areaArrayList":[{"areaCode":"-2019012565","name":""}],"name":"","shiCode":"-2019012565"}]},{"name":"台湾","prCode":"","shiList":[{"areaArrayList":[{"areaCode":"-2019012565","name":""}],"name":"台北","shiCode":"101340101"},{"areaArrayList":[{"areaCode":"-2019012565","name":""}],"name":"高雄","shiCode":"101340201"},{"areaArrayList":[{"areaCode":"-2019012565","name":""}],"name":"台中","shiCode":"101340401"},{"areaArrayList":[{"areaCode":"-2019012565","name":""}],"name":"台南","shiCode":"101340203"},{"areaArrayList":[{"areaCode":"-2019012565","name":""}],"name":"新竹","shiCode":"101340103"},{"areaArrayList":[{"areaCode":"-2019012565","name":""}],"name":"嘉义","shiCode":"101340202"},{"areaArrayList":[{"areaCode":"-2019012565","name":""}],"name":"桃园","shiCode":"101340102"},{"areaArrayList":[{"areaCode":"-2019012565","name":""}],"name":"苗栗","shiCode":"101340402"},{"areaArrayList":[{"areaCode":"-2019012565","name":""}],"name":"彰化","shiCode":"101340403"},{"areaArrayList":[{"areaCode":"-2019012565","name":""}],"name":"南投","shiCode":"101340404"},{"areaArrayList":[{"areaCode":"-2019012565","name":""}],"name":"云林","shiCode":"101340406"},{"areaArrayList":[{"areaCode":"-2019012565","name":""}],"name":"屏东","shiCode":"101340205"},{"areaArrayList":[{"areaCode":"-2019012565","name":""}],"name":"台东县","shiCode":"101340204"},{"areaArrayList":[{"areaCode":"-2019012565","name":""}],"name":"花莲","shiCode":"101340405"}]}]
